<?xml version="1.0" encoding="UTF-8"?>
<kml xmlns="http://www.opengis.net/kml/2.2">
  <Document>
    <name>Dam Break Flood Inundation - abc4f2f4-1987-4cdc-ad9c-5ec1b34370a0</name>
    <Style id="floodPoly">
      <PolyStyle>
        <color>7fff0000</color>
        <outline>1</outline>
      </PolyStyle>
      <LineStyle>
        <color>ffff0000</color>
        <width>2</width>
      </LineStyle>
    </Style>
    <Placemark>
      <name>Peak Inundation Extent</name>
      <description>Simulated Dam-Break Inundation Boundary</description>
      <styleUrl>#floodPoly</styleUrl>
      <Polygon>
        <outerBoundaryIs>
          <LinearRing>
            <coordinates>78.46333333333334,30.3552,0 78.46333333333334,30.357999999999997,0 78.46333333333334,30.358,0 78.46333333333334,30.360799999999998,0 78.46066666666667,30.360799999999998,0 78.46066666666667,30.363599999999998,0 78.46066666666667,30.3664,0 78.458,30.3664,0 78.458,30.3692,0 78.458,30.372,0 78.458,30.374799999999997,0 78.458,30.3748,0 78.458,30.377599999999997,0 78.46066666666667,30.377599999999997,0 78.46066666666667,30.380399999999998,0 78.46066666666667,30.3832,0 78.46333333333334,30.3832,0 78.46333333333334,30.386,0 78.46600000000001,30.386,0 78.46600000000001,30.3888,0 78.46866666666666,30.3888,0 78.46866666666666,30.3916,0 78.47133333333333,30.3916,0 78.474,30.3916,0 78.474,30.394399999999997,0 78.47666666666667,30.394399999999997,0 78.47933333333334,30.394399999999997,0 78.482,30.394399999999997,0 78.48200000000001,30.394399999999997,0 78.48466666666667,30.394399999999997,0 78.48733333333334,30.394399999999997,0 78.48733333333334,30.3916,0 78.49000000000001,30.3916,0 78.49266666666668,30.3916,0 78.49266666666668,30.3888,0 78.49533333333333,30.3888,0 78.49533333333333,30.386,0 78.498,30.386,0 78.498,30.3832,0 78.50066666666667,30.3832,0 78.50066666666667,30.380399999999998,0 78.50333333333334,30.380399999999998,0 78.50333333333334,30.377599999999997,0 78.50333333333334,30.3748,0 78.50333333333334,30.374799999999997,0 78.50333333333334,30.372,0 78.50333333333334,30.3692,0 78.50066666666667,30.3692,0 78.50066666666667,30.3664,0 78.50066666666667,30.363599999999998,0 78.498,30.363599999999998,0 78.498,30.360799999999998,0 78.498,30.357999999999997,0 78.49533333333333,30.357999999999997,0 78.49533333333333,30.3552,0 78.49266666666668,30.3552,0 78.49266666666668,30.3524,0 78.49000000000001,30.3524,0 78.49000000000001,30.3496,0 78.48733333333334,30.3496,0 78.48733333333334,30.346799999999998,0 78.48466666666667,30.346799999999998,0 78.48200000000001,30.346799999999998,0 78.482,30.346799999999998,0 78.47933333333334,30.346799999999998,0 78.47666666666667,30.346799999999998,0 78.474,30.346799999999998,0 78.474,30.3496,0 78.47133333333333,30.3496,0 78.46866666666666,30.3496,0 78.46866666666666,30.3524,0 78.46600000000001,30.3524,0 78.46600000000001,30.3552,0 78.46333333333334,30.3552,0 </coordinates>
          </LinearRing>
        </outerBoundaryIs>
      </Polygon>
    </Placemark>
  </Document>
</kml>