<?xml version="1.0" encoding="UTF-8"?>
<kml xmlns="http://www.opengis.net/kml/2.2">
  <Document>
    <name>Dam Break Flood Inundation - 5a37aa8c-2347-4c8a-a553-a8cc102154ac</name>
    <Style id="floodPoly">
      <PolyStyle>
        <color>7fff0000</color>
        <outline>1</outline>
      </PolyStyle>
      <LineStyle>
        <color>ffff0000</color>
        <width>2</width>
      </LineStyle>
    </Style>
    <Placemark>
      <name>Peak Inundation Extent</name>
      <description>Simulated Dam-Break Inundation Boundary</description>
      <styleUrl>#floodPoly</styleUrl>
      <Polygon>
        <outerBoundaryIs>
          <LinearRing>
            <coordinates>78.53533333333334,30.374799999999997,0 78.53533333333334,30.377599999999997,0 78.53266666666667,30.377599999999997,0 78.53266666666667,30.380399999999998,0 78.53,30.380399999999998,0 78.53,30.3832,0 78.53,30.386,0 78.52733333333333,30.386,0 78.52733333333333,30.3888,0 78.52733333333333,30.3916,0 78.53,30.3916,0 78.53,30.394399999999997,0 78.53,30.397199999999998,0 78.53266666666667,30.397199999999998,0 78.53533333333334,30.397199999999998,0 78.53800000000001,30.397199999999998,0 78.54066666666667,30.397199999999998,0 78.54066666666668,30.397199999999998,0 78.54333333333334,30.397199999999998,0 78.546,30.397199999999998,0 78.54866666666668,30.397199999999998,0 78.55133333333333,30.397199999999998,0 78.55133333333335,30.397199999999998,0 78.554,30.397199999999998,0 78.55666666666667,30.397199999999998,0 78.55933333333334,30.397199999999998,0 78.562,30.397199999999998,0 78.56200000000001,30.397199999999998,0 78.56466666666667,30.397199999999998,0 78.56733333333334,30.397199999999998,0 78.57000000000001,30.397199999999998,0 78.57266666666668,30.397199999999998,0 78.57266666666668,30.394399999999997,0 78.57533333333335,30.394399999999997,0 78.57533333333335,30.3916,0 78.57533333333335,30.391599999999997,0 78.57533333333335,30.3888,0 78.57533333333335,30.386,0 78.57533333333335,30.3832,0 78.57533333333335,30.380399999999998,0 78.57266666666668,30.380399999999998,0 78.57266666666668,30.377599999999997,0 78.57000000000001,30.377599999999997,0 78.57000000000001,30.374799999999997,0 78.56733333333334,30.374799999999997,0 78.56733333333334,30.372,0 78.56466666666667,30.372,0 78.56200000000001,30.372,0 78.56200000000001,30.3692,0 78.55933333333334,30.3692,0 78.55666666666667,30.3692,0 78.554,30.3692,0 78.55133333333335,30.3692,0 78.55133333333333,30.3692,0 78.54866666666668,30.3692,0 78.546,30.3692,0 78.54333333333334,30.3692,0 78.54333333333334,30.372,0 78.54066666666668,30.372,0 78.54066666666667,30.372,0 78.53800000000001,30.372,0 78.53800000000001,30.374799999999997,0 78.53533333333334,30.374799999999997,0 </coordinates>
          </LinearRing>
        </outerBoundaryIs>
      </Polygon>
    </Placemark>
  </Document>
</kml>