<?xml version="1.0" encoding="UTF-8"?>
<kml xmlns="http://www.opengis.net/kml/2.2">
  <Document>
    <name>Dam Break Flood Inundation - 94229337-b5b6-41af-a442-76b888bae6e7</name>
    <Style id="floodPoly">
      <PolyStyle>
        <color>7fff0000</color>
        <outline>1</outline>
      </PolyStyle>
      <LineStyle>
        <color>ffff0000</color>
        <width>2</width>
      </LineStyle>
    </Style>
    <Placemark>
      <name>Peak Inundation Extent</name>
      <description>Simulated Dam-Break Inundation Boundary</description>
      <styleUrl>#floodPoly</styleUrl>
      <Polygon>
        <outerBoundaryIs>
          <LinearRing>
            <coordinates>78.46068627559765,30.360819608930964,0 78.46068627559765,30.369180391069033,0 78.46298186147077,30.369551471862575,0 78.46335294226432,30.371980391069034,0 78.46564852813744,30.372351471862576,0 78.46601960893099,30.374780391069034,0 78.46792588678551,30.37489134456099,0 78.46857532210568,30.375540779881163,0 78.46868627559765,30.37758039106903,0 78.47098186147076,30.377951471862573,0 78.47135294226432,30.383180391069033,0 78.47364852813743,30.383551471862575,0 78.47401960893099,30.385980391069033,0 78.47592588678552,30.386091344560988,0 78.47657532210569,30.386740779881162,0 78.47668627559766,30.388780391069034,0 78.48731372440236,30.388780391069034,0 78.48768480519591,30.386351471862575,0 78.48998039106903,30.385980391069033,0 78.49035147186258,30.383551471862575,0 78.4926470577357,30.383180391069033,0 78.49275801122766,30.38114077988116,0 78.49340744654783,30.380491344560987,0 78.49531372440235,30.380380391069032,0 78.49531372440235,30.374819608930963,0 78.49340744654783,30.374708655439008,0 78.49275801122766,30.374059220118834,0 78.4926470577357,30.369219608930965,0 78.49035147186258,30.368848528137423,0 78.48998039106903,30.366419608930965,0 78.4880741132145,30.36630865543901,0 78.48742467789432,30.365659220118836,0 78.48742467789432,30.36154077988116,0 78.4880741132145,30.360891344560986,0 78.48998039106903,30.36078039106903,0 78.49035147186258,30.358351471862576,0 78.4926470577357,30.357980391069034,0 78.49301813852925,30.355551471862576,0 78.49531372440235,30.355180391069034,0 78.4956848051959,30.352751471862575,0 78.49798039106902,30.352380391069033,0 78.49835147186258,30.349951471862575,0 78.50064705773569,30.349580391069033,0 78.50101813852925,30.347151471862574,0 78.50331372440236,30.346780391069032,0 78.50368480519592,30.344351471862574,0 78.50598039106902,30.34398039106903,0 78.50609134456099,30.339140779881163,0 78.50674077988116,30.33849134456099,0 78.50864705773569,30.338380391069034,0 78.50875801122766,30.33354077988116,0 78.50940744654783,30.332891344560988,0 78.51131372440236,30.332780391069033,0 78.51168480519591,30.330351471862574,0 78.51398039106903,30.329980391069032,0 78.514091344561,30.325140779881163,0 78.51474077988117,30.32449134456099,0 78.5166470577357,30.324380391069035,0 78.51701813852925,30.321951471862576,0 78.51931372440235,30.321580391069034,0 78.51968480519591,30.316351471862575,0 78.52198039106902,30.315980391069033,0 78.52235147186258,30.313551471862574,0 78.52464705773569,30.313180391069032,0 78.52501813852925,30.310751471862574,0 78.52731372440236,30.31038039106903,0 78.52742467789433,30.308340779881163,0 78.5280741132145,30.30769134456099,0 78.52998039106902,30.307580391069035,0 78.53035147186257,30.302351471862575,0 78.53264705773569,30.301980391069034,0 78.53301813852924,30.299551471862575,0 78.53531372440236,30.299180391069033,0 78.53542467789433,30.29714077988116,0 78.5360741132145,30.296491344560987,0 78.53798039106903,30.296380391069032,0 78.53835147186258,30.293951471862574,0 78.5406470577357,30.293580391069032,0 78.54075801122767,30.288740779881163,0 78.54140744654784,30.28809134456099,0 78.54331372440235,30.287980391069034,0 78.54342467789432,30.283140779881162,0 78.54407411321449,30.282491344560988,0 78.54598039106902,30.282380391069033,0 78.54635147186258,30.279951471862574,0 78.54864705773569,30.279580391069032,0 78.54875801122766,30.274740779881164,0 78.54940744654783,30.27409134456099,0 78.55131372440236,30.273980391069035,0 78.55131372440236,30.260019608930964,0 78.54868627559766,30.260019608930964,0 78.5483151948041,30.262448528137423,0 78.54601960893099,30.262819608930965,0 78.54590865543902,30.264859220118836,0 78.54525922011885,30.26550865543901,0 78.54335294226432,30.265619608930965,0 78.54298186147076,30.268048528137424,0 78.54068627559765,30.268419608930966,0 78.54057532210568,30.270459220118838,0 78.53992588678551,30.27110865543901,0 78.538019608931,30.271219608930966,0 78.53764852813744,30.27364852813742,0 78.53535294226432,30.274019608930963,0 78.53524198877236,30.278859220118836,0 78.53459255345219,30.27950865543901,0 78.53268627559765,30.279619608930965,0 78.5323151948041,30.282048528137423,0 78.53001960893098,30.282419608930965,0 78.52964852813743,30.284848528137424,0 78.52735294226432,30.285219608930966,0 78.52698186147076,30.287648528137424,0 78.52468627559766,30.288019608930966,0 78.5243151948041,30.293248528137422,0 78.52201960893099,30.293619608930964,0 78.52190865543902,30.295659220118836,0 78.52125922011885,30.29630865543901,0 78.51668627559765,30.296419608930965,0 78.51657532210568,30.298459220118836,0 78.51592588678551,30.29910865543901,0 78.514019608931,30.299219608930965,0 78.51364852813744,30.301648528137424,0 78.51135294226432,30.302019608930966,0 78.51098186147077,30.304448528137424,0 78.50868627559765,30.304819608930966,0 78.50857532210568,30.306859220118834,0 78.50792588678551,30.30750865543901,0 78.50601960893098,30.307619608930963,0 78.50564852813743,30.310048528137422,0 78.50335294226431,30.310419608930964,0 78.50324198877234,30.315259220118836,0 78.50259255345217,30.31590865543901,0 78.50068627559766,30.316019608930965,0 78.5003151948041,30.318448528137424,0 78.49801960893099,30.318819608930966,0 78.49764852813743,30.321248528137424,0 78.49535294226432,30.321619608930966,0 78.49498186147076,30.32404852813742,0 78.49268627559765,30.324419608930963,0 78.49231519480409,30.329648528137422,0 78.490019608931,30.330019608930964,0 78.48990865543902,30.332059220118836,0 78.48925922011885,30.33270865543901,0 78.48735294226432,30.332819608930965,0 78.48698186147077,30.335248528137424,0 78.48468627559765,30.335619608930966,0 78.4843151948041,30.338048528137424,0 78.48201960893098,30.338419608930966,0 78.48190865543901,30.340459220118834,0 78.48125922011884,30.341108655439008,0 78.47935294226433,30.341219608930963,0 78.47898186147077,30.34364852813742,0 78.47668627559766,30.344019608930964,0 78.47657532210569,30.346059220118835,0 78.47592588678552,30.34670865543901,0 78.47401960893099,30.346819608930964,0 78.47364852813743,30.349248528137423,0 78.47135294226432,30.349619608930965,0 78.47098186147076,30.352048528137423,0 78.46868627559765,30.352419608930965,0 78.46857532210568,30.354459220118837,0 78.46792588678551,30.35510865543901,0 78.46601960893099,30.355219608930966,0 78.46564852813744,30.35764852813742,0 78.46335294226432,30.358019608930963,0 78.46298186147077,30.36044852813742,0 78.46068627559765,30.360819608930964,0 </coordinates>
          </LinearRing>
        </outerBoundaryIs>
      </Polygon>
    </Placemark>
  </Document>
</kml>