{"type": "FeatureCollection", "features": [{"type": "Feature", "geometry": {"type": "Polygon", "coordinates": [[[79.61401960893099, 30.524119608930963], [79.61401960893099, 30.526680391069032], [79.62198039106902, 30.526680391069032], [79.62274077988116, 30.525491344560987], [79.62464705773569, 30.52538039106903], [79.62540744654783, 30.524191344560986], [79.62731372440236, 30.52408039106903], [79.6280741132145, 30.52289134456099], [79.62998039106901, 30.522780391069034], [79.63009134456098, 30.520940779881162], [79.63074077988115, 30.520291344560988], [79.63264705773568, 30.520180391069033], [79.63301813852924, 30.519251471862574], [79.63531372440235, 30.518880391069032], [79.63607411321449, 30.517691344560987], [79.63798039106902, 30.517580391069032], [79.63874077988116, 30.516391344560986], [79.64331372440235, 30.51628039106903], [79.6436848051959, 30.515351471862576], [79.64598039106902, 30.514980391069034], [79.64674077988116, 30.51379134456099], [79.65131372440236, 30.513680391069034], [79.65168480519591, 30.512751471862575], [79.65398039106901, 30.512380391069033], [79.65474077988115, 30.511191344560988], [79.65931372440235, 30.511080391069033], [79.65968480519591, 30.510151471862574], [79.66198039106902, 30.509780391069032], [79.66274077988116, 30.508591344560987], [79.66731372440235, 30.508480391069032], [79.66807411321449, 30.507291344560986], [79.66998039106902, 30.50718039106903], [79.67035147186257, 30.506251471862576], [79.67264705773569, 30.505880391069034], [79.67340744654783, 30.50469134456099], [79.67531372440236, 30.504580391069034], [79.6760741132145, 30.50339134456099], [79.67798039106901, 30.503280391069033], [79.67874077988115, 30.502091344560988], [79.68064705773568, 30.501980391069033], [79.68140744654782, 30.500791344560987], [79.68331372440235, 30.500680391069032], [79.68407411321449, 30.499491344560987], [79.68864705773568, 30.49938039106903], [79.68940744654782, 30.498191344560986], [79.69131372440235, 30.49808039106903], [79.69207411321449, 30.49689134456099], [79.69398039106902, 30.496780391069034], [79.69474077988116, 30.49559134456099], [79.69664705773569, 30.495480391069034], [79.69740744654783, 30.494291344560988], [79.69931372440236, 30.494180391069033], [79.7000741132145, 30.492991344560988], [79.70198039106901, 30.492880391069033], [79.70209134456098, 30.49104077988116], [79.70274077988115, 30.490391344560987], [79.70464705773568, 30.49028039106903], [79.70540744654782, 30.489091344560986], [79.70731372440235, 30.48898039106903], [79.7080741132145, 30.48779134456099], [79.70998039106902, 30.487680391069034], [79.71074077988116, 30.48649134456099], [79.71264705773568, 30.486380391069034], [79.71340744654782, 30.485191344560988], [79.71531372440235, 30.485080391069033], [79.71542467789432, 30.48324077988116], [79.71607411321449, 30.482591344560987], [79.71798039106902, 30.482480391069032], [79.71874077988116, 30.481291344560987], [79.72064705773569, 30.48118039106903], [79.72101813852925, 30.480251471862577], [79.72331372440235, 30.479880391069035], [79.72407411321448, 30.47869134456099], [79.72598039106902, 30.478580391069034], [79.72674077988115, 30.47739134456099], [79.72864705773569, 30.477280391069034], [79.72864705773569, 30.474719608930965], [79.72635147186257, 30.474348528137423], [79.72598039106902, 30.472119608930964], [79.72407411321448, 30.47200865543901], [79.72331372440235, 30.470819608930963], [79.71535294226432, 30.470819608930963], [79.71459255345218, 30.47200865543901], [79.71268627559765, 30.472119608930964], [79.71257532210568, 30.473959220118836], [79.71192588678551, 30.47460865543901], [79.71001960893098, 30.474719608930965], [79.70964852813742, 30.475648528137423], [79.70735294226432, 30.476019608930965], [79.70659255345218, 30.47720865543901], [79.70468627559765, 30.477319608930966], [79.70392588678551, 30.47850865543901], [79.70201960893098, 30.478619608930966], [79.70125922011884, 30.479808655439008], [79.69935294226431, 30.479919608930963], [79.69924198877234, 30.481759220118835], [79.69859255345217, 30.48240865543901], [79.69668627559766, 30.482519608930964], [79.69592588678552, 30.48370865543901], [79.69401960893099, 30.483819608930965], [79.69325922011885, 30.48500865543901], [79.69135294226432, 30.485119608930965], [79.69059255345218, 30.48630865543901], [79.68868627559765, 30.486419608930966], [79.68792588678551, 30.487608655439008], [79.68601960893098, 30.487719608930963], [79.68525922011884, 30.48890865543901], [79.68068627559765, 30.489019608930963], [79.67992588678551, 30.49020865543901], [79.67801960893098, 30.490319608930964], [79.67725922011884, 30.49150865543901], [79.67535294226431, 30.491619608930964], [79.67524198877234, 30.493459220118837], [79.67459255345217, 30.49410865543901], [79.67001960893099, 30.494219608930965], [79.66925922011885, 30.49540865543901], [79.66735294226432, 30.495519608930966], [79.66698186147076, 30.49644852813742], [79.66468627559765, 30.496819608930963], [79.6639258867855, 30.49800865543901], [79.66201960893098, 30.498119608930963], [79.66164852813742, 30.499048528137422], [79.65935294226432, 30.499419608930964], [79.65859255345218, 30.50060865543901], [79.65668627559765, 30.500719608930964], [79.65592588678551, 30.50190865543901], [79.65135294226431, 30.502019608930965], [79.65059255345217, 30.50320865543901], [79.64868627559765, 30.503319608930966], [79.64792588678552, 30.50450865543901], [79.64601960893098, 30.504619608930966], [79.64525922011885, 30.505808655439008], [79.64068627559764, 30.505919608930963], [79.64031519480409, 30.50684852813742], [79.63801960893099, 30.507219608930964], [79.63725922011885, 30.50840865543901], [79.63268627559765, 30.508519608930964], [79.63192588678551, 30.50970865543901], [79.63001960893098, 30.509819608930965], [79.62925922011884, 30.51100865543901], [79.62735294226431, 30.511119608930965], [79.62659255345217, 30.51230865543901], [79.62468627559765, 30.512419608930966], [79.62457532210568, 30.514259220118834], [79.62392588678551, 30.514908655439008], [79.62201960893098, 30.515019608930963], [79.62164852813743, 30.517248528137422], [79.61935294226431, 30.517619608930964], [79.61898186147076, 30.519848528137423], [79.61668627559764, 30.520219608930965], [79.61631519480409, 30.52374852813742], [79.61401960893099, 30.524119608930963]], [[79.62200645860287, 30.5215], [79.62235147186257, 30.519251471862574], [79.62464705773569, 30.518880391069032], [79.62475801122766, 30.51704077988116], [79.62540744654783, 30.516391344560986], [79.62731372440236, 30.51628039106903], [79.62768480519591, 30.514051471862576], [79.62998039106901, 30.513680391069034], [79.63074077988115, 30.51249134456099], [79.63264705773568, 30.512380391069033], [79.63340744654782, 30.511191344560988], [79.63531372440235, 30.511080391069033], [79.63607411321449, 30.509891344560987], [79.64064705773569, 30.509780391069032], [79.64101813852925, 30.508851471862574], [79.64331372440235, 30.508480391069032], [79.64407411321449, 30.507291344560986], [79.64864705773569, 30.50718039106903], [79.64940744654783, 30.50599134456099], [79.65131372440236, 30.505880391069034], [79.6520741132145, 30.50469134456099], [79.65398039106901, 30.504580391069034], [79.65474077988115, 30.50339134456099], [79.65664705773568, 30.503280391069033], [79.65740744654782, 30.502091344560988], [79.65931372440235, 30.501980391069033], [79.66007411321449, 30.500791344560987], [79.66198039106902, 30.500680391069032], [79.66274077988116, 30.499491344560987], [79.66464705773568, 30.49938039106903], [79.66540744654782, 30.498191344560986], [79.66998039106902, 30.49808039106903], [79.67074077988116, 30.49689134456099], [79.67264705773569, 30.496780391069034], [79.67340744654783, 30.49559134456099], [79.67531372440236, 30.495480391069034], [79.6760741132145, 30.494291344560988], [79.67798039106901, 30.494180391069033], [79.67874077988115, 30.492991344560988], [79.68064705773568, 30.492880391069033], [79.68140744654782, 30.491691344560987], [79.68331372440235, 30.491580391069032], [79.68407411321449, 30.490391344560987], [79.68864705773568, 30.49028039106903], [79.68940744654782, 30.489091344560986], [79.69131372440235, 30.48898039106903], [79.6916848051959, 30.488051471862576], [79.69398039106902, 30.487680391069034], [79.69474077988116, 30.48649134456099], [79.69664705773569, 30.486380391069034], [79.69675801122766, 30.48454077988116], [79.69740744654783, 30.483891344560988], [79.69931372440236, 30.483780391069033], [79.69968480519591, 30.482851471862574], [79.70198039106901, 30.482480391069032], [79.70274077988115, 30.481291344560987], [79.70464705773568, 30.48118039106903], [79.70540744654782, 30.47999134456099], [79.70731372440235, 30.479880391069035], [79.7080741132145, 30.47869134456099], [79.70998039106902, 30.478580391069034], [79.71074077988116, 30.47739134456099], [79.71264705773568, 30.477280391069034], [79.71301813852924, 30.475051471862574], [79.71531372440235, 30.474680391069032], [79.71607411321449, 30.473491344560987], [79.72213333333333, 30.473399999999998], [79.72324198877234, 30.47414077988116], [79.72298186147076, 30.476948528137424], [79.72068627559764, 30.477319608930966], [79.7199258867855, 30.47850865543901], [79.71801960893099, 30.478619608930966], [79.71725922011885, 30.479808655439008], [79.71535294226432, 30.479919608930963], [79.71459255345218, 30.48110865543901], [79.71268627559765, 30.481219608930964], [79.71231519480409, 30.483448528137423], [79.71001960893098, 30.483819608930965], [79.70925922011884, 30.48500865543901], [79.70735294226432, 30.485119608930965], [79.70659255345218, 30.48630865543901], [79.70468627559765, 30.486419608930966], [79.70457532210568, 30.488259220118834], [79.70392588678551, 30.48890865543901], [79.70201960893098, 30.489019608930963], [79.70125922011884, 30.49020865543901], [79.69935294226431, 30.490319608930964], [79.69859255345217, 30.49150865543901], [79.69668627559766, 30.491619608930964], [79.69592588678552, 30.49280865543901], [79.69401960893099, 30.492919608930965], [79.69325922011885, 30.49410865543901], [79.69135294226432, 30.494219608930965], [79.69059255345218, 30.49540865543901], [79.68868627559765, 30.495519608930966], [79.68792588678551, 30.496708655439008], [79.68601960893098, 30.496819608930963], [79.68525922011884, 30.49800865543901], [79.68335294226432, 30.498119608930963], [79.68259255345218, 30.49930865543901], [79.68068627559765, 30.499419608930964], [79.67992588678551, 30.50060865543901], [79.67801960893098, 30.500719608930964], [79.67725922011884, 30.50190865543901], [79.67535294226431, 30.502019608930965], [79.67459255345217, 30.50320865543901], [79.67268627559766, 30.503319608930966], [79.67192588678552, 30.50450865543901], [79.67001960893099, 30.504619608930966], [79.66925922011885, 30.505808655439008], [79.66468627559765, 30.505919608930963], [79.66431519480409, 30.50684852813742], [79.66346666666666, 30.507199999999997], [79.65935294226432, 30.507219608930964], [79.65898186147076, 30.508148528137422], [79.65668627559765, 30.508519608930964], [79.65592588678551, 30.50970865543901], [79.65135294226431, 30.509819608930965], [79.65098186147075, 30.510748528137423], [79.64868627559765, 30.511119608930965], [79.64792588678552, 30.51230865543901], [79.64335294226431, 30.512419608930966], [79.64298186147076, 30.513348528137424], [79.64068627559764, 30.513719608930966], [79.6399258867855, 30.514908655439008], [79.63535294226432, 30.515019608930963], [79.63459255345218, 30.51620865543901], [79.63268627559765, 30.516319608930964], [79.6323151948041, 30.517248528137422], [79.63001960893098, 30.517619608930964], [79.62925922011884, 30.51880865543901], [79.62735294226431, 30.518919608930965], [79.62698186147075, 30.521148528137424], [79.62468627559765, 30.521519608930966], [79.62392588678551, 30.522708655439008], [79.62266704265116, 30.52268478715175], [79.62200645860287, 30.5215]], [[79.62081989123674, 30.5215], [79.62174750378075, 30.52193872805898], [79.62190865543901, 30.523359220118834], [79.62125922011884, 30.524008655439008], [79.62007411321449, 30.524008655439008], [79.61942467789432, 30.523359220118834], [79.61942467789432, 30.522240779881162], [79.62081989123674, 30.5215]]]}, "properties": {"simulation_id": "proj_chamoli_002", "zone": "shallow", "min_depth_m": 0.1, "max_depth_m": 1.0}}, {"type": "Feature", "geometry": {"type": "MultiPolygon", "coordinates": [[[[79.72068627559764, 30.473419608930964], [79.72068627559764, 30.477280391069034], [79.72331372440235, 30.477280391069034], [79.72331372440235, 30.473419608930964], [79.72068627559764, 30.473419608930964]]], [[[79.71268627559765, 30.474719608930965], [79.71268627559765, 30.475980391069033], [79.71531372440235, 30.475980391069033], [79.71607411321449, 30.474791344560987], [79.71798039106902, 30.474680391069032], [79.71798039106902, 30.473419608930964], [79.71535294226432, 30.473419608930964], [79.71459255345218, 30.47460865543901], [79.71268627559765, 30.474719608930965]]], [[[79.71, 30.483681810315954], [79.71264705773568, 30.483780391069033], [79.71264705773568, 30.482519608930964], [79.71001960893098, 30.482519608930964], [79.71, 30.483681810315954]]], [[[79.69668627559766, 30.483819608930965], [79.69668627559766, 30.485080391069033], [79.69931372440236, 30.485080391069033], [79.69968480519591, 30.484151471862575], [79.70198039106901, 30.483780391069033], [79.70274077988115, 30.482591344560987], [79.70464705773568, 30.482480391069032], [79.70464705773568, 30.481219608930964], [79.70201960893098, 30.481219608930964], [79.70125922011884, 30.48240865543901], [79.69935294226431, 30.482519608930964], [79.69859255345217, 30.48370865543901], [79.69668627559766, 30.483819608930965]]], [[[79.69933333333333, 30.490181810315953], [79.70198039106901, 30.49028039106903], [79.70274077988115, 30.489091344560986], [79.70464705773568, 30.48898039106903], [79.70464705773568, 30.487719608930963], [79.70201960893098, 30.487719608930963], [79.70125922011884, 30.48890865543901], [79.69935294226431, 30.489019608930963], [79.69933333333333, 30.490181810315953]]], [[[79.66735294226432, 30.504619608930966], [79.66735294226432, 30.505880391069034], [79.66998039106902, 30.505880391069034], [79.67074077988116, 30.50469134456099], [79.67264705773569, 30.504580391069034], [79.67340744654783, 30.50339134456099], [79.67531372440236, 30.503280391069033], [79.67568480519591, 30.502351471862575], [79.67798039106901, 30.501980391069033], [79.67874077988115, 30.500791344560987], [79.68064705773568, 30.500680391069032], [79.68140744654782, 30.499491344560987], [79.68331372440235, 30.49938039106903], [79.68407411321449, 30.498191344560986], [79.68598039106902, 30.49808039106903], [79.68674077988116, 30.49689134456099], [79.68864705773568, 30.496780391069034], [79.68864705773568, 30.495519608930966], [79.68601960893098, 30.495519608930966], [79.68564852813742, 30.49644852813742], [79.68335294226432, 30.496819608930963], [79.68259255345218, 30.49800865543901], [79.68068627559765, 30.498119608930963], [79.67992588678551, 30.49930865543901], [79.67801960893098, 30.499419608930964], [79.67725922011884, 30.50060865543901], [79.67535294226431, 30.500719608930964], [79.67459255345217, 30.50190865543901], [79.67268627559766, 30.502019608930965], [79.67192588678552, 30.50320865543901], [79.67001960893099, 30.503319608930966], [79.66925922011885, 30.50450865543901], [79.66735294226432, 30.504619608930966]]], [[[79.67535294226431, 30.494219608930965], [79.67535294226431, 30.495480391069034], [79.67798039106901, 30.495480391069034], [79.67874077988115, 30.494291344560988], [79.68064705773568, 30.494180391069033], [79.68101813852924, 30.493251471862575], [79.68331372440235, 30.492880391069033], [79.68407411321449, 30.491691344560987], [79.68598039106902, 30.491580391069032], [79.68598039106902, 30.490319608930964], [79.68335294226432, 30.490319608930964], [79.68259255345218, 30.49150865543901], [79.68068627559765, 30.491619608930964], [79.6803151948041, 30.492548528137423], [79.67801960893098, 30.492919608930965], [79.67725922011884, 30.49410865543901], [79.67535294226431, 30.494219608930965]]], [[[79.65935294226432, 30.500719608930964], [79.65935294226432, 30.501980391069033], [79.66198039106902, 30.501980391069033], [79.66235147186258, 30.501051471862574], [79.66464705773568, 30.500680391069032], [79.66540744654782, 30.499491344560987], [79.66731372440235, 30.49938039106903], [79.66731372440235, 30.498119608930963], [79.66468627559765, 30.498119608930963], [79.6639258867855, 30.49930865543901], [79.66201960893098, 30.499419608930964], [79.66125922011884, 30.50060865543901], [79.65935294226432, 30.500719608930964]]], [[[79.65401960893098, 30.508519608930964], [79.65401960893098, 30.509780391069032], [79.65664705773568, 30.509780391069032], [79.65664705773568, 30.508519608930964], [79.65401960893098, 30.508519608930964]]], [[[79.64601960893098, 30.511119608930965], [79.64601960893098, 30.512380391069033], [79.64864705773569, 30.512380391069033], [79.64864705773569, 30.511119608930965], [79.64601960893098, 30.511119608930965]]], [[[79.64335294226431, 30.507219608930964], [79.64335294226431, 30.508480391069032], [79.64598039106902, 30.508480391069032], [79.64598039106902, 30.507219608930964], [79.64335294226431, 30.507219608930964]]], [[[79.61933333333333, 30.523981810315952], [79.62198039106902, 30.52408039106903], [79.62201607125944, 30.52110842378407], [79.62266704265116, 30.520315212848246], [79.62392588678551, 30.520291344560988], [79.62468627559765, 30.521480391069034], [79.62731372440236, 30.521480391069034], [79.62734940459278, 30.51980842378407], [79.6280003759845, 30.519015212848245], [79.62998039106901, 30.518880391069032], [79.63074077988115, 30.517691344560987], [79.63264705773568, 30.517580391069032], [79.63301813852924, 30.516651471862573], [79.63531372440235, 30.51628039106903], [79.63607411321449, 30.51509134456099], [79.64064705773569, 30.514980391069034], [79.64064705773569, 30.513719608930966], [79.6360003759845, 30.513584787151753], [79.63534940459277, 30.51279157621593], [79.63542467789432, 30.51184077988116], [79.63607411321449, 30.511191344560988], [79.63798039106902, 30.511080391069033], [79.638, 30.509918189684043], [79.63535294226432, 30.509819608930965], [79.63459255345218, 30.51100865543901], [79.63268627559765, 30.511119608930965], [79.6323151948041, 30.512048528137424], [79.63001960893098, 30.512419608930966], [79.62925922011884, 30.51360865543901], [79.62735294226431, 30.513719608930966], [79.62735294226431, 30.514980391069034], [79.62974750378075, 30.51543872805898], [79.63, 30.516399999999997], [79.62964852813742, 30.517248528137422], [79.62735294226431, 30.517619608930964], [79.62731726207389, 30.519291576215927], [79.62615322457006, 30.5202], [79.62501813852924, 30.519848528137423], [79.62464705773569, 30.518919608930965], [79.62201960893098, 30.518919608930965], [79.62174750378075, 30.52106127194102], [79.61935294226431, 30.521519608930966], [79.61933333333333, 30.523981810315952]], [[79.63267023057074, 30.51358208304428], [79.63301813852924, 30.512751471862575], [79.63415322457007, 30.5124], [79.63508083711409, 30.51283872805898], [79.63533333333334, 30.513799999999996], [79.63498186147076, 30.51464852813742], [79.63384677542993, 30.514999999999997], [79.63291916288591, 30.514561271941016], [79.63267023057074, 30.51358208304428]], [[79.63000356390407, 30.51488208304428], [79.63035147186257, 30.514051471862576], [79.6314865579034, 30.5137], [79.63241417044742, 30.51413872805898], [79.63266666666667, 30.515099999999997], [79.6323151948041, 30.51594852813742], [79.63118010876326, 30.516299999999998], [79.63025249621924, 30.515861271941016], [79.63000356390407, 30.51488208304428]]]]}, "properties": {"simulation_id": "proj_chamoli_002", "zone": "moderate", "min_depth_m": 1.5, "max_depth_m": 2.5}}, {"type": "Feature", "geometry": {"type": "MultiPolygon", "coordinates": [[[[79.71801960893099, 30.477319608930966], [79.71801960893099, 30.478580391069034], [79.72064705773569, 30.478580391069034], [79.72091916288592, 30.47643872805898], [79.72331372440235, 30.475980391069033], [79.72331372440235, 30.474719608930965], [79.72068627559764, 30.474719608930965], [79.72041417044741, 30.47686127194102], [79.71801960893099, 30.477319608930966]]], [[[79.70735294226432, 30.483819608930965], [79.70735294226432, 30.485080391069033], [79.70998039106902, 30.485080391069033], [79.70998039106902, 30.483819608930965], [79.70735294226432, 30.483819608930965]]], [[[79.70468627559765, 30.479919608930963], [79.70468627559765, 30.48118039106903], [79.70731372440235, 30.48118039106903], [79.70731372440235, 30.479919608930963], [79.70468627559765, 30.479919608930963]]], [[[79.69668627559766, 30.490319608930964], [79.69668627559766, 30.491580391069032], [79.69931372440236, 30.491580391069032], [79.69931372440236, 30.490319608930964], [79.69668627559766, 30.490319608930964]]], [[[79.69135294226432, 30.487719608930963], [79.69135294226432, 30.48898039106903], [79.69398039106902, 30.48898039106903], [79.69398039106902, 30.487719608930963], [79.69135294226432, 30.487719608930963]]], [[[79.68868627559765, 30.494219608930965], [79.68868627559765, 30.495480391069034], [79.69131372440235, 30.495480391069034], [79.69131372440235, 30.494219608930965], [79.68868627559765, 30.494219608930965]]], [[[79.67268627559766, 30.495519608930966], [79.67268627559766, 30.496780391069034], [79.67531372440236, 30.496780391069034], [79.67531372440236, 30.495519608930966], [79.67268627559766, 30.495519608930966]]], [[[79.66201960893098, 30.505919608930963], [79.66201960893098, 30.50718039106903], [79.66464705773568, 30.50718039106903], [79.66464705773568, 30.505919608930963], [79.66201960893098, 30.505919608930963]]], [[[79.65668627559765, 30.502019608930965], [79.65668627559765, 30.503280391069033], [79.65931372440235, 30.503280391069033], [79.65931372440235, 30.502019608930965], [79.65668627559765, 30.502019608930965]]], [[[79.65668627559765, 30.507219608930964], [79.65668627559765, 30.508480391069032], [79.65931372440235, 30.508480391069032], [79.65931372440235, 30.507219608930964], [79.65668627559765, 30.507219608930964]]], [[[79.64601960893098, 30.507219608930964], [79.64601960893098, 30.508480391069032], [79.64841417044742, 30.50893872805898], [79.64868627559765, 30.511080391069033], [79.65131372440236, 30.511080391069033], [79.65131372440236, 30.509819608930965], [79.64933370931783, 30.509684787151752], [79.64866666666667, 30.508499999999998], [79.64940744654783, 30.507291344560986], [79.65131372440236, 30.50718039106903], [79.65131372440236, 30.505919608930963], [79.64868627559765, 30.505919608930963], [79.64792588678552, 30.50710865543901], [79.64601960893098, 30.507219608930964]]], [[[79.63801960893099, 30.509819608930965], [79.63801960893099, 30.511080391069033], [79.64041417044741, 30.51153872805898], [79.64068627559764, 30.513680391069034], [79.64331372440235, 30.513680391069034], [79.64407411321449, 30.51249134456099], [79.64598039106902, 30.512380391069033], [79.64598039106902, 30.511119608930965], [79.64358582955258, 30.510661271941018], [79.64331372440235, 30.508519608930964], [79.64068627559764, 30.508519608930964], [79.6399258867855, 30.50970865543901], [79.63801960893099, 30.509819608930965]], [[79.64067023057075, 30.51098208304428], [79.64101813852925, 30.510151471862574], [79.64215322457007, 30.5098], [79.64308083711408, 30.51023872805898], [79.64333333333333, 30.5112], [79.64298186147076, 30.512048528137424], [79.64184677542994, 30.5124], [79.64091916288592, 30.51196127194102], [79.64067023057075, 30.51098208304428]]], [[[79.62468627559765, 30.516319608930964], [79.62468627559765, 30.517580391069032], [79.62731372440236, 30.517580391069032], [79.62731372440236, 30.516319608930964], [79.62468627559765, 30.516319608930964]]], [[[79.62201960893098, 30.520219608930965], [79.62201960893098, 30.522780391069034], [79.62464705773569, 30.522780391069034], [79.62464705773569, 30.520219608930965], [79.62201960893098, 30.520219608930965]]]]}, "properties": {"simulation_id": "proj_chamoli_002", "zone": "deep", "min_depth_m": 3.0, "max_depth_m": 4.0}}, {"type": "Feature", "geometry": {"type": "Polygon", "coordinates": [[[79.62468627559765, 30.517619608930964], [79.62468627559765, 30.520180391069033], [79.62731372440236, 30.520180391069033], [79.62768480519591, 30.517951471862574], [79.62998039106901, 30.517580391069032], [79.63074077988115, 30.516391344560986], [79.63264705773568, 30.51628039106903], [79.63340744654782, 30.51509134456099], [79.63531372440235, 30.514980391069034], [79.63607411321449, 30.51379134456099], [79.64064705773569, 30.513680391069034], [79.64101813852925, 30.512751471862575], [79.64331372440235, 30.512380391069033], [79.64407411321449, 30.511191344560988], [79.64864705773569, 30.511080391069033], [79.64901813852924, 30.510151471862574], [79.64986666666667, 30.5098], [79.65398039106901, 30.509780391069032], [79.65435147186257, 30.508851471862574], [79.65664705773568, 30.508480391069032], [79.65740744654782, 30.507291344560986], [79.66198039106902, 30.50718039106903], [79.66235147186258, 30.506251471862576], [79.6632, 30.5059], [79.66731372440235, 30.505880391069034], [79.66807411321449, 30.50469134456099], [79.66998039106902, 30.504580391069034], [79.67035147186257, 30.503651471862575], [79.67264705773569, 30.503280391069033], [79.67340744654783, 30.502091344560988], [79.67531372440236, 30.501980391069033], [79.6760741132145, 30.500791344560987], [79.67798039106901, 30.500680391069032], [79.67874077988115, 30.499491344560987], [79.68064705773568, 30.49938039106903], [79.68140744654782, 30.498191344560986], [79.68331372440235, 30.49808039106903], [79.68407411321449, 30.49689134456099], [79.68598039106902, 30.496780391069034], [79.68635147186258, 30.495851471862576], [79.68864705773568, 30.495480391069034], [79.68940744654782, 30.494291344560988], [79.69398039106902, 30.494180391069033], [79.69474077988116, 30.492991344560988], [79.69664705773569, 30.492880391069033], [79.69675801122766, 30.49104077988116], [79.69740744654783, 30.490391344560987], [79.69931372440236, 30.49028039106903], [79.7000741132145, 30.489091344560986], [79.70198039106901, 30.48898039106903], [79.70274077988115, 30.48779134456099], [79.70464705773568, 30.487680391069034], [79.70540744654782, 30.48649134456099], [79.70731372440235, 30.486380391069034], [79.70742467789432, 30.48454077988116], [79.7080741132145, 30.483891344560988], [79.70998039106902, 30.483780391069033], [79.71074077988116, 30.482591344560987], [79.71264705773568, 30.482480391069032], [79.71340744654782, 30.481291344560987], [79.71531372440235, 30.48118039106903], [79.71607411321449, 30.47999134456099], [79.71798039106902, 30.479880391069035], [79.71835147186258, 30.477651471862576], [79.72064705773569, 30.477280391069034], [79.72064705773569, 30.473419608930964], [79.71801960893099, 30.473419608930964], [79.71725922011885, 30.47460865543901], [79.71535294226432, 30.474719608930965], [79.71459255345218, 30.47590865543901], [79.71268627559765, 30.476019608930965], [79.71192588678551, 30.47720865543901], [79.71001960893098, 30.477319608930966], [79.70925922011884, 30.47850865543901], [79.70735294226432, 30.478619608930966], [79.70698186147077, 30.48084852813742], [79.70468627559765, 30.481219608930964], [79.70392588678551, 30.48240865543901], [79.70201960893098, 30.482519608930964], [79.70125922011884, 30.48370865543901], [79.69935294226431, 30.483819608930965], [79.69859255345217, 30.48500865543901], [79.69668627559766, 30.485119608930965], [79.69592588678552, 30.48630865543901], [79.69401960893099, 30.486419608930966], [79.69390865543902, 30.488259220118834], [79.69325922011885, 30.48890865543901], [79.68868627559765, 30.489019608930963], [79.68792588678551, 30.49020865543901], [79.68601960893098, 30.490319608930964], [79.68525922011884, 30.49150865543901], [79.68335294226432, 30.491619608930964], [79.68259255345218, 30.49280865543901], [79.68068627559765, 30.492919608930965], [79.67992588678551, 30.49410865543901], [79.67801960893098, 30.494219608930965], [79.67725922011884, 30.49540865543901], [79.67535294226431, 30.495519608930966], [79.67459255345217, 30.496708655439008], [79.67001960893099, 30.496819608930963], [79.66925922011885, 30.49800865543901], [79.66735294226432, 30.498119608930963], [79.66659255345218, 30.49930865543901], [79.66468627559765, 30.499419608930964], [79.6639258867855, 30.50060865543901], [79.66201960893098, 30.500719608930964], [79.66125922011884, 30.50190865543901], [79.65935294226432, 30.502019608930965], [79.65859255345218, 30.50320865543901], [79.65401960893098, 30.503319608930966], [79.65325922011884, 30.50450865543901], [79.65135294226431, 30.504619608930966], [79.65098186147075, 30.50684852813742], [79.64868627559765, 30.507219608930964], [79.64792588678552, 30.50840865543901], [79.64335294226431, 30.508519608930964], [79.64298186147076, 30.509448528137423], [79.64068627559764, 30.509819608930965], [79.6399258867855, 30.51100865543901], [79.63535294226432, 30.511119608930965], [79.63498186147076, 30.512048528137424], [79.63268627559765, 30.512419608930966], [79.63192588678551, 30.51360865543901], [79.63001960893098, 30.513719608930966], [79.62925922011884, 30.514908655439008], [79.62735294226431, 30.515019608930963], [79.62724198877234, 30.516859220118835], [79.62659255345217, 30.51750865543901], [79.62468627559765, 30.517619608930964]]]}, "properties": {"simulation_id": "proj_chamoli_002", "zone": "severe", "min_depth_m": 5.0, "max_depth_m": 45.58378691659781}}]}