{"type": "FeatureCollection", "features": [{"type": "Feature", "geometry": {"type": "Polygon", "coordinates": [[[78.53533333333334, 30.374799999999997], [78.53533333333334, 30.377599999999997], [78.53266666666667, 30.377599999999997], [78.53266666666667, 30.380399999999998], [78.53, 30.380399999999998], [78.53, 30.3832], [78.53, 30.386], [78.52733333333333, 30.386], [78.52733333333333, 30.3888], [78.52733333333333, 30.3916], [78.53, 30.3916], [78.53, 30.394399999999997], [78.53, 30.397199999999998], [78.53266666666667, 30.397199999999998], [78.53533333333334, 30.397199999999998], [78.53800000000001, 30.397199999999998], [78.54066666666667, 30.397199999999998], [78.54066666666668, 30.397199999999998], [78.54333333333334, 30.397199999999998], [78.546, 30.397199999999998], [78.54866666666668, 30.397199999999998], [78.55133333333333, 30.397199999999998], [78.55133333333335, 30.397199999999998], [78.554, 30.397199999999998], [78.55666666666667, 30.397199999999998], [78.55933333333334, 30.397199999999998], [78.562, 30.397199999999998], [78.56200000000001, 30.397199999999998], [78.56466666666667, 30.397199999999998], [78.56733333333334, 30.397199999999998], [78.57000000000001, 30.397199999999998], [78.57266666666668, 30.397199999999998], [78.57266666666668, 30.394399999999997], [78.57533333333335, 30.394399999999997], [78.57533333333335, 30.3916], [78.57533333333335, 30.391599999999997], [78.57533333333335, 30.3888], [78.57533333333335, 30.386], [78.57533333333335, 30.3832], [78.57533333333335, 30.380399999999998], [78.57266666666668, 30.380399999999998], [78.57266666666668, 30.377599999999997], [78.57000000000001, 30.377599999999997], [78.57000000000001, 30.374799999999997], [78.56733333333334, 30.374799999999997], [78.56733333333334, 30.372], [78.56466666666667, 30.372], [78.56200000000001, 30.372], [78.56200000000001, 30.3692], [78.55933333333334, 30.3692], [78.55666666666667, 30.3692], [78.554, 30.3692], [78.55133333333335, 30.3692], [78.55133333333333, 30.3692], [78.54866666666668, 30.3692], [78.546, 30.3692], [78.54333333333334, 30.3692], [78.54333333333334, 30.372], [78.54066666666668, 30.372], [78.54066666666667, 30.372], [78.53800000000001, 30.372], [78.53800000000001, 30.374799999999997], [78.53533333333334, 30.374799999999997]]]}, "properties": {"simulation_id": "proj_tehri_001", "threshold_m": 0.1, "max_depth_m": 8.622472344903247}}]}