{"type": "FeatureCollection", "features": [{"type": "Feature", "geometry": {"type": "Polygon", "coordinates": [[[78.46068627559765, 30.358019608930963], [78.46068627559765, 30.369180391069033], [78.46298186147077, 30.369551471862575], [78.46335294226432, 30.371980391069034], [78.46564852813744, 30.372351471862576], [78.46601960893099, 30.374780391069034], [78.46792588678551, 30.37489134456099], [78.46857532210568, 30.375540779881163], [78.46868627559765, 30.37758039106903], [78.47098186147076, 30.377951471862573], [78.47135294226432, 30.383180391069033], [78.47325922011885, 30.383291344560988], [78.47390865543902, 30.38394077988116], [78.47401960893099, 30.385980391069033], [78.4763151948041, 30.386351471862575], [78.47668627559766, 30.388780391069034], [78.47859255345219, 30.38889134456099], [78.47924198877236, 30.389540779881163], [78.47935294226433, 30.391580391069034], [78.48464705773569, 30.391580391069034], [78.48501813852924, 30.389151471862576], [78.48731372440236, 30.388780391069034], [78.48768480519591, 30.386351471862575], [78.48998039106903, 30.385980391069033], [78.49035147186258, 30.383551471862575], [78.4926470577357, 30.383180391069033], [78.49301813852925, 30.380751471862574], [78.49533333333333, 30.380281810315953], [78.49531372440235, 30.374819608930963], [78.49340744654783, 30.374708655439008], [78.49275801122766, 30.374059220118834], [78.4926470577357, 30.369219608930965], [78.49035147186258, 30.368848528137423], [78.48998039106903, 30.366419608930965], [78.4880741132145, 30.36630865543901], [78.48742467789432, 30.365659220118836], [78.48742467789432, 30.36154077988116], [78.48853333333334, 30.360799999999998], [78.4926470577357, 30.36078039106903], [78.49301813852925, 30.358351471862576], [78.49531372440235, 30.357980391069034], [78.49542467789432, 30.353140779881162], [78.49607411321449, 30.35249134456099], [78.49798039106902, 30.352380391069033], [78.49835147186258, 30.349951471862575], [78.50064705773569, 30.349580391069033], [78.50101813852925, 30.347151471862574], [78.50331372440236, 30.346780391069032], [78.50368480519592, 30.344351471862574], [78.50598039106902, 30.34398039106903], [78.50609134456099, 30.339140779881163], [78.50674077988116, 30.33849134456099], [78.50864705773569, 30.338380391069034], [78.50901813852924, 30.335951471862575], [78.51131372440236, 30.335580391069033], [78.51142467789433, 30.33074077988116], [78.5120741132145, 30.330091344560987], [78.51398039106903, 30.329980391069032], [78.514091344561, 30.325140779881163], [78.51474077988117, 30.32449134456099], [78.5166470577357, 30.324380391069035], [78.51701813852925, 30.321951471862576], [78.51931372440235, 30.321580391069034], [78.51968480519591, 30.319151471862575], [78.52198039106902, 30.318780391069033], [78.52235147186258, 30.313551471862574], [78.52464705773569, 30.313180391069032], [78.52501813852925, 30.310751471862574], [78.52731372440236, 30.31038039106903], [78.52742467789433, 30.308340779881163], [78.5280741132145, 30.30769134456099], [78.52998039106902, 30.307580391069035], [78.53035147186257, 30.305151471862576], [78.53264705773569, 30.304780391069034], [78.53275801122766, 30.302740779881162], [78.53340744654783, 30.30209134456099], [78.53531372440236, 30.301980391069034], [78.53542467789433, 30.29714077988116], [78.5360741132145, 30.296491344560987], [78.53798039106903, 30.296380391069032], [78.53835147186258, 30.293951471862574], [78.5406470577357, 30.293580391069032], [78.54101813852925, 30.288351471862576], [78.54331372440235, 30.287980391069034], [78.54342467789432, 30.285940779881162], [78.54407411321449, 30.28529134456099], [78.54598039106902, 30.285180391069034], [78.54609134456099, 30.28034077988116], [78.54674077988116, 30.279691344560987], [78.54864705773569, 30.279580391069032], [78.54901813852925, 30.274351471862577], [78.55131372440236, 30.273980391069035], [78.55142467789433, 30.269140779881162], [78.5520741132145, 30.26849134456099], [78.55398039106902, 30.268380391069034], [78.55409134456099, 30.26354077988116], [78.55474077988116, 30.262891344560988], [78.55664705773569, 30.262780391069033], [78.55701813852924, 30.257551471862577], [78.55931372440236, 30.257180391069035], [78.55931372440236, 30.254419608930966], [78.55740744654783, 30.25430865543901], [78.55666666666667, 30.2532], [78.55740744654783, 30.25169134456099], [78.55931372440236, 30.251580391069034], [78.55931372440236, 30.248819608930965], [78.55401960893099, 30.248819608930965], [78.55364852813743, 30.251248528137424], [78.55135294226432, 30.251619608930966], [78.55124198877235, 30.253659220118838], [78.55059255345218, 30.25430865543901], [78.54868627559766, 30.254419608930966], [78.5483151948041, 30.25684852813742], [78.54601960893099, 30.257219608930964], [78.54590865543902, 30.262059220118836], [78.54525922011885, 30.26270865543901], [78.54335294226432, 30.262819608930965], [78.54298186147076, 30.268048528137424], [78.54068627559765, 30.268419608930966], [78.54057532210568, 30.270459220118838], [78.53992588678551, 30.27110865543901], [78.538019608931, 30.271219608930966], [78.53764852813744, 30.27364852813742], [78.53535294226432, 30.274019608930963], [78.53524198877236, 30.276059220118835], [78.53459255345219, 30.27670865543901], [78.53268627559765, 30.276819608930964], [78.5323151948041, 30.282048528137423], [78.53001960893098, 30.282419608930965], [78.52964852813743, 30.284848528137424], [78.52735294226432, 30.285219608930966], [78.52724198877235, 30.287259220118838], [78.52659255345218, 30.28790865543901], [78.52468627559766, 30.288019608930966], [78.5243151948041, 30.29044852813742], [78.52201960893099, 30.290819608930963], [78.52164852813743, 30.293248528137422], [78.51935294226432, 30.293619608930964], [78.51898186147076, 30.296048528137423], [78.51668627559765, 30.296419608930965], [78.51657532210568, 30.298459220118836], [78.51592588678551, 30.29910865543901], [78.514019608931, 30.299219608930965], [78.51364852813744, 30.301648528137424], [78.51135294226432, 30.302019608930966], [78.51098186147077, 30.304448528137424], [78.50868627559765, 30.304819608930966], [78.5083151948041, 30.30724852813742], [78.50601960893098, 30.307619608930963], [78.50564852813743, 30.310048528137422], [78.50335294226431, 30.310419608930964], [78.50324198877234, 30.312459220118836], [78.50259255345217, 30.31310865543901], [78.50068627559766, 30.313219608930964], [78.50057532210569, 30.318059220118837], [78.49992588678552, 30.31870865543901], [78.49801960893099, 30.318819608930966], [78.49764852813743, 30.321248528137424], [78.49535294226432, 30.321619608930966], [78.49498186147076, 30.32404852813742], [78.49268627559765, 30.324419608930963], [78.49231519480409, 30.326848528137422], [78.490019608931, 30.327219608930964], [78.48964852813744, 30.332448528137423], [78.48735294226432, 30.332819608930965], [78.48698186147077, 30.335248528137424], [78.48468627559765, 30.335619608930966], [78.4843151948041, 30.338048528137424], [78.48201960893098, 30.338419608930966], [78.48190865543901, 30.340459220118834], [78.48125922011884, 30.341108655439008], [78.47935294226433, 30.341219608930963], [78.47898186147077, 30.34364852813742], [78.47668627559766, 30.344019608930964], [78.4763151948041, 30.346448528137422], [78.47401960893099, 30.346819608930964], [78.47390865543902, 30.348859220118836], [78.47325922011885, 30.34950865543901], [78.47135294226432, 30.349619608930965], [78.47098186147076, 30.352048528137423], [78.46868627559765, 30.352419608930965], [78.46857532210568, 30.354459220118837], [78.46792588678551, 30.35510865543901], [78.46601960893099, 30.355219608930966], [78.46564852813744, 30.35764852813742], [78.46068627559765, 30.358019608930963]], [[78.46598039106902, 30.36078039106903], [78.46635147186258, 30.358351471862576], [78.4686470577357, 30.357980391069034], [78.46875801122766, 30.355940779881163], [78.46940744654783, 30.35529134456099], [78.47131372440235, 30.355180391069034], [78.4716848051959, 30.352751471862575], [78.47664705773569, 30.352380391069033], [78.47701813852925, 30.349951471862575], [78.47931372440236, 30.349580391069033], [78.47968480519592, 30.344351471862574], [78.48198039106903, 30.34398039106903], [78.482091344561, 30.341940779881163], [78.48274077988117, 30.34129134456099], [78.48464705773569, 30.341180391069035], [78.48501813852924, 30.338751471862576], [78.48731372440236, 30.338380391069034], [78.48768480519591, 30.335951471862575], [78.48998039106903, 30.335580391069033], [78.490091344561, 30.33354077988116], [78.49074077988116, 30.332891344560988], [78.4926470577357, 30.332780391069033], [78.49275801122766, 30.33074077988116], [78.49340744654783, 30.330091344560987], [78.49531372440235, 30.329980391069032], [78.4956848051959, 30.327551471862574], [78.49798039106902, 30.32718039106903], [78.49809134456099, 30.322340779881163], [78.49874077988116, 30.32169134456099], [78.50064705773569, 30.321580391069034], [78.50101813852925, 30.319151471862575], [78.50331372440236, 30.318780391069033], [78.50368480519592, 30.316351471862575], [78.50598039106902, 30.315980391069033], [78.50635147186257, 30.313551471862574], [78.50864705773569, 30.313180391069032], [78.50901813852924, 30.307951471862577], [78.51398039106903, 30.307580391069035], [78.51435147186258, 30.305151471862576], [78.5166470577357, 30.304780391069034], [78.51675801122767, 30.302740779881162], [78.51740744654784, 30.30209134456099], [78.51931372440235, 30.301980391069034], [78.51968480519591, 30.299551471862575], [78.52198039106902, 30.299180391069033], [78.52235147186258, 30.296751471862574], [78.52464705773569, 30.296380391069032], [78.52501813852925, 30.293951471862574], [78.52731372440236, 30.293580391069032], [78.52742467789433, 30.291540779881164], [78.5280741132145, 30.29089134456099], [78.52998039106902, 30.290780391069035], [78.53035147186257, 30.288351471862576], [78.53264705773569, 30.287980391069034], [78.53275801122766, 30.285940779881162], [78.53340744654783, 30.28529134456099], [78.53531372440236, 30.285180391069034], [78.53568480519591, 30.279951471862574], [78.53798039106903, 30.279580391069032], [78.53835147186258, 30.277151471862574], [78.5406470577357, 30.276780391069032], [78.54075801122767, 30.274740779881164], [78.54140744654784, 30.27409134456099], [78.54331372440235, 30.273980391069035], [78.54342467789432, 30.269140779881162], [78.54407411321449, 30.26849134456099], [78.54598039106902, 30.268380391069034], [78.54609134456099, 30.26354077988116], [78.54674077988116, 30.262891344560988], [78.54864705773569, 30.262780391069033], [78.54901813852925, 30.260351471862574], [78.55131372440236, 30.259980391069032], [78.55168480519592, 30.257551471862577], [78.55253333333334, 30.2572], [78.55364852813743, 30.257551471862577], [78.554, 30.2584], [78.55390865543902, 30.262059220118836], [78.55325922011885, 30.26270865543901], [78.55135294226432, 30.262819608930965], [78.55124198877235, 30.267659220118837], [78.55059255345218, 30.26830865543901], [78.54868627559766, 30.268419608930966], [78.54857532210569, 30.273259220118835], [78.54792588678552, 30.27390865543901], [78.54601960893099, 30.274019608930963], [78.54564852813743, 30.276448528137422], [78.54335294226432, 30.276819608930964], [78.54298186147076, 30.282048528137423], [78.54068627559765, 30.282419608930965], [78.54057532210568, 30.284459220118837], [78.53992588678551, 30.28510865543901], [78.538019608931, 30.285219608930966], [78.53790865543903, 30.290059220118835], [78.53725922011886, 30.29070865543901], [78.53535294226432, 30.290819608930963], [78.53498186147077, 30.296048528137423], [78.53268627559765, 30.296419608930965], [78.5323151948041, 30.298848528137423], [78.53001960893098, 30.299219608930965], [78.52990865543902, 30.301259220118837], [78.52925922011885, 30.30190865543901], [78.52735294226432, 30.302019608930966], [78.52724198877235, 30.304059220118837], [78.52659255345218, 30.30470865543901], [78.52468627559766, 30.304819608930966], [78.5243151948041, 30.30724852813742], [78.52201960893099, 30.307619608930963], [78.52190865543902, 30.309659220118835], [78.52125922011885, 30.31030865543901], [78.51935294226432, 30.310419608930964], [78.51924198877235, 30.315259220118836], [78.51859255345218, 30.31590865543901], [78.51668627559765, 30.316019608930965], [78.5163151948041, 30.318448528137424], [78.514019608931, 30.318819608930966], [78.51390865543902, 30.323659220118834], [78.51325922011885, 30.324308655439008], [78.51135294226432, 30.324419608930963], [78.51098186147077, 30.326848528137422], [78.50868627559765, 30.327219608930964], [78.50857532210568, 30.332059220118836], [78.50792588678551, 30.33270865543901], [78.50601960893098, 30.332819608930965], [78.50564852813743, 30.338048528137424], [78.50335294226431, 30.338419608930966], [78.50324198877234, 30.340459220118834], [78.50259255345217, 30.341108655439008], [78.50068627559766, 30.341219608930963], [78.5003151948041, 30.34364852813742], [78.49801960893099, 30.344019608930964], [78.49764852813743, 30.349248528137423], [78.49535294226432, 30.349619608930965], [78.49498186147076, 30.352048528137423], [78.49268627559765, 30.352419608930965], [78.49257532210568, 30.354459220118837], [78.49192588678551, 30.35510865543901], [78.490019608931, 30.355219608930966], [78.48964852813744, 30.35764852813742], [78.48735294226432, 30.358019608930963], [78.48724198877235, 30.360059220118835], [78.48659255345218, 30.36070865543901], [78.48468627559765, 30.360819608930964], [78.4843151948041, 30.363248528137422], [78.48201960893098, 30.363619608930964], [78.48201960893098, 30.366380391069033], [78.4843151948041, 30.366751471862575], [78.48468627559765, 30.369180391069033], [78.48698186147077, 30.369551471862575], [78.48735294226432, 30.371980391069034], [78.48964852813744, 30.372351471862576], [78.490019608931, 30.374780391069034], [78.49192588678551, 30.37489134456099], [78.49266666666666, 30.376], [78.49192588678551, 30.37750865543901], [78.490019608931, 30.377619608930964], [78.48964852813744, 30.380048528137422], [78.48735294226432, 30.380419608930964], [78.48698186147077, 30.382848528137423], [78.48468627559765, 30.383219608930965], [78.4843151948041, 30.385648528137423], [78.4800741132145, 30.38590865543901], [78.47942467789433, 30.385259220118837], [78.47931372440236, 30.383219608930965], [78.47740744654783, 30.38310865543901], [78.47675801122766, 30.382459220118836], [78.47664705773569, 30.380419608930964], [78.47435147186258, 30.380048528137422], [78.47398039106902, 30.377619608930964], [78.4716848051959, 30.37724852813742], [78.47131372440235, 30.372019608930966], [78.46901813852925, 30.371648528137424], [78.4686470577357, 30.369219608930965], [78.46635147186258, 30.368848528137423], [78.46598039106902, 30.366419608930965], [78.4640741132145, 30.36630865543901], [78.46342467789432, 30.365659220118836], [78.46342467789432, 30.36154077988116], [78.4640741132145, 30.360891344560986], [78.46598039106902, 30.36078039106903]]]}, "properties": {"simulation_id": "proj_tehri_001", "zone": "shallow", "min_depth_m": 0.1, "max_depth_m": 1.0}}, {"type": "Feature", "geometry": {"type": "MultiPolygon", "coordinates": [[[[78.54601960893099, 30.262819608930965], [78.54601960893099, 30.265580391069033], [78.5483151948041, 30.265951471862575], [78.54868627559766, 30.268380391069034], [78.55131372440236, 30.268380391069034], [78.55131372440236, 30.265619608930965], [78.54901813852925, 30.265248528137423], [78.54875801122766, 30.26354077988116], [78.54986666666667, 30.2628], [78.55398039106902, 30.262780391069033], [78.55398039106902, 30.257219608930964], [78.55135294226432, 30.257219608930964], [78.55124198877235, 30.259259220118835], [78.55059255345218, 30.25990865543901], [78.54868627559766, 30.260019608930964], [78.5483151948041, 30.262448528137423], [78.54601960893099, 30.262819608930965]]], [[[78.54601960893099, 30.271219608930966], [78.54601960893099, 30.273980391069035], [78.54864705773569, 30.273980391069035], [78.54864705773569, 30.271219608930966], [78.54601960893099, 30.271219608930966]]], [[[78.54066666666667, 30.282281810315954], [78.54331372440235, 30.282380391069033], [78.54331372440235, 30.279619608930965], [78.54068627559765, 30.279619608930965], [78.54066666666667, 30.282281810315954]]], [[[78.53535294226432, 30.288019608930966], [78.53535294226432, 30.290780391069035], [78.53798039106903, 30.290780391069035], [78.53798039106903, 30.288019608930966], [78.53535294226432, 30.288019608930966]]], [[[78.53533333333334, 30.282281810315954], [78.53798039106903, 30.282380391069033], [78.53798039106903, 30.279619608930965], [78.53535294226432, 30.279619608930965], [78.53533333333334, 30.282281810315954]]], [[[78.53268627559765, 30.293619608930964], [78.53268627559765, 30.296380391069032], [78.53531372440236, 30.296380391069032], [78.53531372440236, 30.293619608930964], [78.53268627559765, 30.293619608930964]]], [[[78.52735294226432, 30.290819608930963], [78.52735294226432, 30.293580391069032], [78.52998039106902, 30.293580391069032], [78.52998039106902, 30.290819608930963], [78.52735294226432, 30.290819608930963]]], [[[78.51668627559765, 30.313219608930964], [78.51668627559765, 30.315980391069033], [78.51931372440235, 30.315980391069033], [78.51931372440235, 30.313219608930964], [78.51668627559765, 30.313219608930964]]], [[[78.51135294226432, 30.321619608930966], [78.51135294226432, 30.324380391069035], [78.51398039106903, 30.324380391069035], [78.51398039106903, 30.321619608930966], [78.51135294226432, 30.321619608930966]]], [[[78.50868627559765, 30.307619608930963], [78.50868627559765, 30.31038039106903], [78.51131372440236, 30.31038039106903], [78.51131372440236, 30.307619608930963], [78.50868627559765, 30.307619608930963]]], [[[78.506, 30.332681810315954], [78.50864705773569, 30.332780391069033], [78.50864705773569, 30.330019608930964], [78.50601960893098, 30.330019608930964], [78.506, 30.332681810315954]]], [[[78.50333333333333, 30.338281810315955], [78.50598039106902, 30.338380391069034], [78.50598039106902, 30.335619608930966], [78.50335294226431, 30.335619608930966], [78.50333333333333, 30.338281810315955]]], [[[78.49801960893099, 30.321619608930966], [78.49801960893099, 30.324380391069035], [78.50064705773569, 30.324380391069035], [78.50101813852925, 30.321951471862576], [78.50331372440236, 30.321580391069034], [78.50342467789433, 30.319540779881162], [78.5040741132145, 30.31889134456099], [78.50598039106902, 30.318780391069033], [78.50598039106902, 30.316019608930965], [78.50335294226431, 30.316019608930965], [78.50324198877234, 30.318059220118837], [78.50259255345217, 30.31870865543901], [78.50068627559766, 30.318819608930966], [78.5003151948041, 30.321248528137424], [78.49801960893099, 30.321619608930966]]], [[[78.49268627559765, 30.349619608930965], [78.49268627559765, 30.352380391069033], [78.49531372440235, 30.352380391069033], [78.4956848051959, 30.349951471862575], [78.49798039106902, 30.349580391069033], [78.49798039106902, 30.346819608930964], [78.49535294226432, 30.346819608930964], [78.49498186147076, 30.349248528137423], [78.49268627559765, 30.349619608930965]]], [[[78.49000000000001, 30.377481810315953], [78.4926470577357, 30.37758039106903], [78.4926470577357, 30.374819608930963], [78.490019608931, 30.374819608930963], [78.49000000000001, 30.377481810315953]]], [[[78.47935294226433, 30.344019608930964], [78.47935294226433, 30.346780391069032], [78.48198039106903, 30.346780391069032], [78.482091344561, 30.34474077988116], [78.48274077988117, 30.344091344560987], [78.48464705773569, 30.34398039106903], [78.48501813852924, 30.341551471862577], [78.48731372440236, 30.341180391069035], [78.48742467789432, 30.339140779881163], [78.4880741132145, 30.33849134456099], [78.48998039106903, 30.338380391069034], [78.49035147186258, 30.335951471862575], [78.4926470577357, 30.335580391069033], [78.4926470577357, 30.332819608930965], [78.490019608931, 30.332819608930965], [78.48964852813744, 30.335248528137424], [78.48735294226432, 30.335619608930966], [78.48698186147077, 30.338048528137424], [78.48468627559765, 30.338419608930966], [78.4843151948041, 30.34084852813742], [78.48201960893098, 30.341219608930963], [78.48190865543901, 30.343259220118835], [78.48125922011884, 30.34390865543901], [78.47935294226433, 30.344019608930964]]], [[[78.48201960893098, 30.360819608930964], [78.48201960893098, 30.363580391069032], [78.48464705773569, 30.363580391069032], [78.48501813852924, 30.361151471862573], [78.48731372440236, 30.36078039106903], [78.48731372440236, 30.358019608930963], [78.48468627559765, 30.358019608930963], [78.4843151948041, 30.36044852813742], [78.48201960893098, 30.360819608930964]]], [[[78.46335294226432, 30.360819608930964], [78.46335294226432, 30.366380391069033], [78.46598039106902, 30.366380391069033], [78.466091344561, 30.36154077988116], [78.46674077988116, 30.360891344560986], [78.4686470577357, 30.36078039106903], [78.46901813852925, 30.358351471862576], [78.47131372440235, 30.357980391069034], [78.4716848051959, 30.355551471862576], [78.47398039106902, 30.355180391069034], [78.47398039106902, 30.352419608930965], [78.47135294226432, 30.352419608930965], [78.47098186147076, 30.354848528137424], [78.46868627559765, 30.355219608930966], [78.46857532210568, 30.357259220118834], [78.46792588678551, 30.357908655439008], [78.46601960893099, 30.358019608930963], [78.46564852813744, 30.36044852813742], [78.46335294226432, 30.360819608930964]]], [[[78.47135294226432, 30.374819608930963], [78.47135294226432, 30.37758039106903], [78.47398039106902, 30.37758039106903], [78.47398039106902, 30.374819608930963], [78.47135294226432, 30.374819608930963]]]]}, "properties": {"simulation_id": "proj_tehri_001", "zone": "moderate", "min_depth_m": 1.5, "max_depth_m": 2.5}}, {"type": "Feature", "geometry": {"type": "MultiPolygon", "coordinates": [[[[78.54333333333334, 30.271081810315955], [78.54864705773569, 30.271180391069034], [78.54875801122766, 30.266340779881162], [78.54940744654783, 30.265691344560988], [78.55131372440236, 30.265580391069033], [78.55131372440236, 30.262819608930965], [78.54868627559766, 30.262819608930965], [78.5483151948041, 30.265248528137423], [78.54601960893099, 30.265619608930965], [78.54590865543902, 30.267659220118837], [78.54525922011885, 30.26830865543901], [78.54335294226432, 30.268419608930966], [78.54333333333334, 30.271081810315955]]], [[[78.54335294226432, 30.274019608930963], [78.54335294226432, 30.276780391069032], [78.54598039106902, 30.276780391069032], [78.54598039106902, 30.274019608930963], [78.54335294226432, 30.274019608930963]]], [[[78.52735294226432, 30.299219608930965], [78.52735294226432, 30.301980391069034], [78.52998039106902, 30.301980391069034], [78.53035147186257, 30.299551471862575], [78.53264705773569, 30.299180391069033], [78.53264705773569, 30.296419608930965], [78.53001960893098, 30.296419608930965], [78.52964852813743, 30.298848528137423], [78.52735294226432, 30.299219608930965]]], [[[78.52201960893099, 30.296419608930965], [78.52201960893099, 30.299180391069033], [78.52464705773569, 30.299180391069033], [78.52501813852925, 30.296751471862574], [78.52731372440236, 30.296380391069032], [78.52731372440236, 30.293619608930964], [78.52468627559766, 30.293619608930964], [78.5243151948041, 30.296048528137423], [78.52201960893099, 30.296419608930965]]], [[[78.50868627559765, 30.324419608930963], [78.50868627559765, 30.32718039106903], [78.51131372440236, 30.32718039106903], [78.51131372440236, 30.324419608930963], [78.50868627559765, 30.324419608930963]]], [[[78.50068627559766, 30.338419608930966], [78.50068627559766, 30.341180391069035], [78.50331372440236, 30.341180391069035], [78.50331372440236, 30.338419608930966], [78.50068627559766, 30.338419608930966]]], [[[78.49268627559765, 30.330019608930964], [78.49268627559765, 30.332780391069033], [78.49531372440235, 30.332780391069033], [78.4956848051959, 30.330351471862574], [78.49798039106902, 30.329980391069032], [78.49798039106902, 30.327219608930964], [78.49535294226432, 30.327219608930964], [78.49498186147076, 30.329648528137422], [78.49268627559765, 30.330019608930964]]], [[[78.48735294226432, 30.355219608930966], [78.48735294226432, 30.357980391069034], [78.48998039106903, 30.357980391069034], [78.49035147186258, 30.355551471862576], [78.4926470577357, 30.355180391069034], [78.4926470577357, 30.352419608930965], [78.490019608931, 30.352419608930965], [78.48964852813744, 30.354848528137424], [78.48735294226432, 30.355219608930966]]], [[[78.48201960893098, 30.366419608930965], [78.48201960893098, 30.369180391069033], [78.4843151948041, 30.369551471862575], [78.48468627559765, 30.371980391069034], [78.48659255345218, 30.37209134456099], [78.48724198877235, 30.372740779881163], [78.48735294226432, 30.374780391069034], [78.48998039106903, 30.374780391069034], [78.48998039106903, 30.372019608930966], [78.48768480519591, 30.371648528137424], [78.48731372440236, 30.369219608930965], [78.48540744654782, 30.36910865543901], [78.48475801122765, 30.368459220118837], [78.48464705773569, 30.366419608930965], [78.48201960893098, 30.366419608930965]]], [[[78.47401960893099, 30.377619608930964], [78.47401960893099, 30.380380391069032], [78.4763151948041, 30.380751471862574], [78.47668627559766, 30.383180391069033], [78.47931372440236, 30.383180391069033], [78.47931372440236, 30.380419608930964], [78.47701813852925, 30.380048528137422], [78.47664705773569, 30.377619608930964], [78.47401960893099, 30.377619608930964]]], [[[78.46601960893099, 30.366419608930965], [78.46601960893099, 30.369180391069033], [78.46831519480409, 30.369551471862575], [78.46868627559765, 30.371980391069034], [78.47131372440235, 30.371980391069034], [78.47131372440235, 30.369219608930965], [78.46901813852925, 30.368848528137423], [78.4686470577357, 30.366419608930965], [78.46601960893099, 30.366419608930965]]]]}, "properties": {"simulation_id": "proj_tehri_001", "zone": "deep", "min_depth_m": 3.0, "max_depth_m": 4.0}}, {"type": "Feature", "geometry": {"type": "Polygon", "coordinates": [[[78.46601960893099, 30.360819608930964], [78.46601960893099, 30.366380391069033], [78.46831519480409, 30.366751471862575], [78.46868627559765, 30.369180391069033], [78.47059255345218, 30.369291344560988], [78.47124198877235, 30.369940779881162], [78.47135294226432, 30.374780391069034], [78.47364852813743, 30.375151471862576], [78.47401960893099, 30.37758039106903], [78.47592588678552, 30.377691344560986], [78.47657532210569, 30.37834077988116], [78.47668627559766, 30.380380391069032], [78.47898186147077, 30.380751471862574], [78.47935294226433, 30.385980391069033], [78.48464705773569, 30.385980391069033], [78.48501813852924, 30.383551471862575], [78.48731372440236, 30.383180391069033], [78.48742467789432, 30.38114077988116], [78.4880741132145, 30.380491344560987], [78.48998039106903, 30.380380391069032], [78.49000000000001, 30.374918189684042], [78.48768480519591, 30.37444852813742], [78.48731372440236, 30.372019608930966], [78.48501813852924, 30.371648528137424], [78.48464705773569, 30.369219608930965], [78.48274077988117, 30.36910865543901], [78.482091344561, 30.368459220118837], [78.482091344561, 30.36154077988116], [78.48274077988117, 30.360891344560986], [78.48464705773569, 30.36078039106903], [78.48501813852924, 30.358351471862576], [78.48731372440236, 30.357980391069034], [78.48768480519591, 30.355551471862576], [78.48998039106903, 30.355180391069034], [78.49035147186258, 30.352751471862575], [78.4926470577357, 30.352380391069033], [78.49301813852925, 30.349951471862575], [78.49531372440235, 30.349580391069033], [78.4956848051959, 30.347151471862574], [78.49798039106902, 30.346780391069032], [78.49835147186258, 30.344351471862574], [78.50064705773569, 30.34398039106903], [78.50075801122766, 30.339140779881163], [78.50140744654783, 30.33849134456099], [78.50331372440236, 30.338380391069034], [78.50368480519592, 30.335951471862575], [78.50598039106902, 30.335580391069033], [78.50609134456099, 30.33074077988116], [78.50674077988116, 30.330091344560987], [78.50864705773569, 30.329980391069032], [78.50875801122766, 30.325140779881163], [78.50940744654783, 30.32449134456099], [78.51131372440236, 30.324380391069035], [78.51168480519591, 30.321951471862576], [78.51398039106903, 30.321580391069034], [78.51435147186258, 30.319151471862575], [78.5166470577357, 30.318780391069033], [78.51701813852925, 30.313551471862574], [78.51931372440235, 30.313180391069032], [78.51942467789432, 30.31114077988116], [78.52007411321449, 30.310491344560987], [78.52198039106902, 30.31038039106903], [78.52235147186258, 30.307951471862577], [78.52464705773569, 30.307580391069035], [78.52501813852925, 30.305151471862576], [78.52731372440236, 30.304780391069034], [78.52768480519592, 30.299551471862575], [78.52998039106902, 30.299180391069033], [78.53009134456099, 30.29714077988116], [78.53074077988116, 30.296491344560987], [78.53264705773569, 30.296380391069032], [78.53301813852924, 30.293951471862574], [78.53531372440236, 30.293580391069032], [78.53542467789433, 30.288740779881163], [78.5360741132145, 30.28809134456099], [78.53798039106903, 30.287980391069034], [78.53835147186258, 30.285551471862576], [78.5406470577357, 30.285180391069034], [78.54075801122767, 30.28034077988116], [78.54140744654784, 30.279691344560987], [78.54331372440235, 30.279580391069032], [78.54342467789432, 30.274740779881164], [78.54407411321449, 30.27409134456099], [78.54598039106902, 30.273980391069035], [78.54598039106902, 30.271219608930966], [78.54335294226432, 30.271219608930966], [78.54298186147076, 30.27364852813742], [78.54068627559765, 30.274019608930963], [78.54057532210568, 30.276059220118835], [78.53992588678551, 30.27670865543901], [78.538019608931, 30.276819608930964], [78.53790865543903, 30.281659220118836], [78.53725922011886, 30.28230865543901], [78.53535294226432, 30.282419608930965], [78.53498186147077, 30.284848528137424], [78.53268627559765, 30.285219608930966], [78.5323151948041, 30.287648528137424], [78.53001960893098, 30.288019608930966], [78.52964852813743, 30.293248528137422], [78.52735294226432, 30.293619608930964], [78.52724198877235, 30.295659220118836], [78.52659255345218, 30.29630865543901], [78.52468627559766, 30.296419608930965], [78.52457532210569, 30.298459220118836], [78.52392588678552, 30.29910865543901], [78.51935294226432, 30.299219608930965], [78.51898186147076, 30.301648528137424], [78.51668627559765, 30.302019608930966], [78.51657532210568, 30.304059220118837], [78.51592588678551, 30.30470865543901], [78.514019608931, 30.304819608930966], [78.51364852813744, 30.30724852813742], [78.51135294226432, 30.307619608930963], [78.51124198877235, 30.309659220118835], [78.51059255345218, 30.31030865543901], [78.50868627559765, 30.310419608930964], [78.5083151948041, 30.312848528137422], [78.50601960893098, 30.313219608930964], [78.50590865543901, 30.318059220118837], [78.50525922011884, 30.31870865543901], [78.50335294226431, 30.318819608930966], [78.50298186147076, 30.321248528137424], [78.50068627559766, 30.321619608930966], [78.5003151948041, 30.32404852813742], [78.49801960893099, 30.324419608930963], [78.49764852813743, 30.329648528137422], [78.49535294226432, 30.330019608930964], [78.49498186147076, 30.332448528137423], [78.49268627559765, 30.332819608930965], [78.49257532210568, 30.334859220118837], [78.49192588678551, 30.33550865543901], [78.490019608931, 30.335619608930966], [78.48964852813744, 30.338048528137424], [78.48735294226432, 30.338419608930966], [78.48698186147077, 30.34084852813742], [78.48468627559765, 30.341219608930963], [78.4843151948041, 30.34364852813742], [78.48201960893098, 30.344019608930964], [78.48190865543901, 30.346059220118835], [78.48125922011884, 30.34670865543901], [78.47935294226433, 30.346819608930964], [78.47898186147077, 30.349248528137423], [78.47668627559766, 30.349619608930965], [78.4763151948041, 30.352048528137423], [78.47401960893099, 30.352419608930965], [78.47364852813743, 30.354848528137424], [78.47135294226432, 30.355219608930966], [78.47098186147076, 30.35764852813742], [78.46868627559765, 30.358019608930963], [78.46857532210568, 30.360059220118835], [78.46792588678551, 30.36070865543901], [78.46601960893099, 30.360819608930964]]]}, "properties": {"simulation_id": "proj_tehri_001", "zone": "severe", "min_depth_m": 5.0, "max_depth_m": 126.35442007092279}}]}