{"type": "FeatureCollection", "features": [{"type": "Feature", "geometry": {"type": "Polygon", "coordinates": [[[78.45533333333334, 30.324399999999997], [78.45266666666667, 30.324399999999997], [78.45266666666667, 30.327199999999998], [78.45266666666667, 30.33], [78.45266666666667, 30.3328], [78.45266666666667, 30.3356], [78.45266666666667, 30.3384], [78.45266666666667, 30.341199999999997], [78.45266666666667, 30.3412], [78.45266666666667, 30.343999999999998], [78.45266666666667, 30.346799999999998], [78.45266666666667, 30.3496], [78.45266666666667, 30.3524], [78.45266666666667, 30.3552], [78.45266666666667, 30.357999999999997], [78.45266666666667, 30.358], [78.45266666666667, 30.360799999999998], [78.45266666666667, 30.363599999999998], [78.45266666666667, 30.3664], [78.45266666666667, 30.3692], [78.45266666666667, 30.372], [78.45533333333334, 30.372], [78.45533333333334, 30.374799999999997], [78.45533333333334, 30.3748], [78.45533333333334, 30.377599999999997], [78.458, 30.377599999999997], [78.458, 30.380399999999998], [78.458, 30.3832], [78.46066666666667, 30.3832], [78.46066666666667, 30.386], [78.46333333333334, 30.386], [78.46333333333334, 30.3888], [78.46600000000001, 30.3888], [78.46600000000001, 30.3916], [78.46866666666666, 30.3916], [78.46866666666668, 30.3916], [78.47133333333333, 30.3916], [78.47133333333333, 30.394399999999997], [78.474, 30.394399999999997], [78.47666666666667, 30.394399999999997], [78.47933333333334, 30.394399999999997], [78.482, 30.394399999999997], [78.48200000000001, 30.394399999999997], [78.48466666666667, 30.394399999999997], [78.48733333333334, 30.394399999999997], [78.49000000000001, 30.394399999999997], [78.49000000000001, 30.3916], [78.49266666666666, 30.3916], [78.49266666666668, 30.3916], [78.49533333333333, 30.3916], [78.49533333333333, 30.3888], [78.498, 30.3888], [78.498, 30.386], [78.50066666666667, 30.386], [78.50066666666667, 30.3832], [78.50333333333334, 30.3832], [78.50333333333334, 30.380399999999998], [78.506, 30.380399999999998], [78.506, 30.377599999999997], [78.506, 30.3748], [78.50866666666667, 30.3748], [78.50866666666667, 30.372], [78.50866666666667, 30.3692], [78.50866666666667, 30.3664], [78.50866666666667, 30.363599999999998], [78.51133333333334, 30.363599999999998], [78.51133333333334, 30.360799999999998], [78.51133333333334, 30.358], [78.51133333333334, 30.357999999999997], [78.51133333333334, 30.3552], [78.51133333333334, 30.3524], [78.51133333333334, 30.3496], [78.51133333333334, 30.346799999999998], [78.51400000000001, 30.346799999999998], [78.51400000000001, 30.343999999999998], [78.51400000000001, 30.3412], [78.51400000000001, 30.341199999999997], [78.51400000000001, 30.3384], [78.51666666666668, 30.3384], [78.51666666666668, 30.3356], [78.51666666666668, 30.3328], [78.51666666666668, 30.33], [78.51933333333334, 30.33], [78.51933333333334, 30.327199999999998], [78.51933333333334, 30.3244], [78.51933333333334, 30.324399999999997], [78.51933333333334, 30.3216], [78.522, 30.3216], [78.522, 30.3188], [78.522, 30.316], [78.522, 30.3132], [78.52466666666668, 30.3132], [78.52466666666668, 30.310399999999998], [78.52466666666668, 30.3076], [78.52466666666668, 30.307599999999997], [78.52466666666668, 30.3048], [78.52466666666668, 30.302], [78.52466666666668, 30.2992], [78.52466666666668, 30.2964], [78.522, 30.2964], [78.522, 30.293599999999998], [78.522, 30.290799999999997], [78.51933333333334, 30.290799999999997], [78.51933333333334, 30.288], [78.51666666666668, 30.288], [78.51666666666668, 30.2852], [78.51400000000001, 30.2852], [78.51133333333334, 30.2852], [78.51133333333334, 30.2824], [78.50866666666667, 30.2824], [78.506, 30.2824], [78.506, 30.2796], [78.50333333333334, 30.2796], [78.50333333333333, 30.2796], [78.50066666666667, 30.2796], [78.498, 30.2796], [78.49533333333333, 30.2796], [78.49533333333333, 30.2824], [78.49266666666668, 30.2824], [78.49266666666666, 30.2824], [78.49000000000001, 30.2824], [78.48733333333334, 30.2824], [78.48733333333334, 30.2852], [78.48466666666667, 30.2852], [78.482, 30.2852], [78.482, 30.288], [78.47933333333334, 30.288], [78.47933333333334, 30.290799999999997], [78.47666666666667, 30.290799999999997], [78.474, 30.290799999999997], [78.474, 30.293599999999998], [78.47133333333333, 30.293599999999998], [78.47133333333333, 30.2964], [78.46866666666666, 30.2964], [78.46866666666666, 30.2992], [78.46600000000001, 30.2992], [78.46600000000001, 30.302], [78.46333333333334, 30.302], [78.46333333333334, 30.3048], [78.46333333333334, 30.307599999999997], [78.46066666666667, 30.307599999999997], [78.46066666666667, 30.310399999999998], [78.458, 30.310399999999998], [78.458, 30.3132], [78.458, 30.316], [78.45533333333334, 30.316], [78.45533333333334, 30.3188], [78.45533333333334, 30.3216], [78.45533333333334, 30.324399999999997]], [[78.47933333333334, 30.3832], [78.47666666666667, 30.3832], [78.474, 30.3832], [78.474, 30.380399999999998], [78.47133333333333, 30.380399999999998], [78.47133333333333, 30.377599999999997], [78.46866666666668, 30.377599999999997], [78.46866666666668, 30.3748], [78.46866666666668, 30.374799999999997], [78.46866666666668, 30.372], [78.46866666666668, 30.3692], [78.46600000000001, 30.3692], [78.46600000000001, 30.3664], [78.46600000000001, 30.363599999999998], [78.46333333333334, 30.363599999999998], [78.46333333333334, 30.360799999999998], [78.46333333333334, 30.358], [78.46333333333334, 30.357999999999997], [78.46333333333334, 30.3552], [78.46333333333334, 30.3524], [78.46333333333334, 30.3496], [78.46333333333334, 30.346799999999998], [78.46600000000001, 30.346799999999998], [78.46600000000001, 30.343999999999998], [78.46600000000001, 30.3412], [78.46600000000001, 30.341199999999997], [78.46600000000001, 30.3384], [78.46866666666668, 30.3384], [78.46866666666668, 30.3356], [78.46866666666668, 30.3328], [78.46866666666668, 30.33], [78.46866666666668, 30.327199999999998], [78.47133333333333, 30.327199999999998], [78.47133333333333, 30.3244], [78.47133333333333, 30.324399999999997], [78.47133333333333, 30.3216], [78.47133333333333, 30.3188], [78.474, 30.3188], [78.474, 30.316], [78.474, 30.3132], [78.47666666666667, 30.3132], [78.47666666666667, 30.310399999999998], [78.47933333333334, 30.310399999999998], [78.47933333333334, 30.3076], [78.47933333333334, 30.307599999999997], [78.47933333333334, 30.3048], [78.48200000000001, 30.3048], [78.48200000000001, 30.302], [78.48466666666667, 30.302], [78.48466666666667, 30.2992], [78.48733333333334, 30.2992], [78.48733333333334, 30.2964], [78.49000000000001, 30.2964], [78.49266666666668, 30.2964], [78.49266666666668, 30.293599999999998], [78.49533333333333, 30.293599999999998], [78.498, 30.293599999999998], [78.498, 30.2908], [78.50066666666667, 30.2908], [78.50333333333333, 30.2908], [78.50333333333334, 30.2908], [78.506, 30.2908], [78.50866666666667, 30.2908], [78.50866666666667, 30.293599999999998], [78.51133333333334, 30.293599999999998], [78.51133333333334, 30.2964], [78.51400000000001, 30.2964], [78.51400000000001, 30.2992], [78.51400000000001, 30.302], [78.51666666666667, 30.302], [78.51666666666667, 30.3048], [78.51400000000001, 30.3048], [78.51400000000001, 30.307599999999997], [78.51400000000001, 30.3076], [78.51400000000001, 30.310399999999998], [78.51400000000001, 30.3132], [78.51133333333334, 30.3132], [78.51133333333334, 30.316], [78.51133333333334, 30.3188], [78.50866666666667, 30.3188], [78.50866666666667, 30.3216], [78.506, 30.3216], [78.506, 30.324399999999997], [78.506, 30.3244], [78.506, 30.327199999999998], [78.506, 30.33], [78.50333333333333, 30.33], [78.50333333333333, 30.3328], [78.50333333333333, 30.3356], [78.50066666666667, 30.3356], [78.50066666666667, 30.3384], [78.50066666666667, 30.341199999999997], [78.498, 30.341199999999997], [78.498, 30.343999999999998], [78.498, 30.346799999999998], [78.49533333333333, 30.346799999999998], [78.49533333333333, 30.3496], [78.49533333333333, 30.3524], [78.49533333333333, 30.3552], [78.49266666666666, 30.3552], [78.49266666666666, 30.357999999999997], [78.49266666666666, 30.358], [78.49266666666666, 30.360799999999998], [78.49266666666666, 30.363599999999998], [78.49266666666666, 30.3664], [78.49266666666666, 30.3692], [78.49266666666666, 30.372], [78.49266666666666, 30.374799999999997], [78.49266666666666, 30.3748], [78.49266666666666, 30.377599999999997], [78.49000000000001, 30.377599999999997], [78.49000000000001, 30.380399999999998], [78.48733333333334, 30.380399999999998], [78.48733333333334, 30.3832], [78.48466666666667, 30.3832], [78.482, 30.3832], [78.482, 30.386], [78.47933333333334, 30.386], [78.47933333333334, 30.3832]]]}, "properties": {"simulation_id": "proj_tehri_001", "zone": "shallow", "min_depth_m": 0.1, "max_depth_m": 1.0}}, {"type": "Feature", "geometry": {"type": "Polygon", "coordinates": [[[78.46866666666666, 30.33], [78.46866666666666, 30.3328], [78.46866666666666, 30.3356], [78.46866666666666, 30.3384], [78.46600000000001, 30.3384], [78.46600000000001, 30.341199999999997], [78.46600000000001, 30.3412], [78.46600000000001, 30.343999999999998], [78.46600000000001, 30.346799999999998], [78.46333333333334, 30.346799999999998], [78.46333333333334, 30.3496], [78.46333333333334, 30.3524], [78.46333333333334, 30.3552], [78.46333333333334, 30.357999999999997], [78.46333333333334, 30.358], [78.46333333333334, 30.360799999999998], [78.46333333333334, 30.363599999999998], [78.46600000000001, 30.363599999999998], [78.46600000000001, 30.3664], [78.46600000000001, 30.3692], [78.46866666666666, 30.3692], [78.46866666666666, 30.372], [78.46866666666666, 30.374799999999997], [78.46866666666666, 30.3748], [78.46866666666666, 30.377599999999997], [78.47133333333333, 30.377599999999997], [78.47133333333333, 30.380399999999998], [78.474, 30.380399999999998], [78.474, 30.3832], [78.47666666666667, 30.3832], [78.47933333333334, 30.3832], [78.47933333333334, 30.386], [78.48200000000001, 30.386], [78.48200000000001, 30.3832], [78.48466666666667, 30.3832], [78.48733333333334, 30.3832], [78.48733333333334, 30.380399999999998], [78.49000000000001, 30.380399999999998], [78.49000000000001, 30.377599999999997], [78.49266666666668, 30.377599999999997], [78.49266666666668, 30.3748], [78.49266666666668, 30.374799999999997], [78.49266666666668, 30.372], [78.49266666666668, 30.3692], [78.49266666666668, 30.3664], [78.49266666666668, 30.363599999999998], [78.49266666666668, 30.360799999999998], [78.49266666666668, 30.358], [78.49266666666668, 30.357999999999997], [78.49266666666668, 30.3552], [78.49533333333333, 30.3552], [78.49533333333333, 30.3524], [78.49533333333333, 30.3496], [78.49533333333333, 30.346799999999998], [78.498, 30.346799999999998], [78.498, 30.343999999999998], [78.498, 30.3412], [78.50066666666667, 30.3412], [78.50066666666667, 30.3384], [78.50066666666667, 30.3356], [78.50333333333334, 30.3356], [78.50333333333334, 30.3328], [78.50333333333334, 30.33], [78.506, 30.33], [78.506, 30.327199999999998], [78.506, 30.3244], [78.506, 30.324399999999997], [78.506, 30.3216], [78.50866666666667, 30.3216], [78.50866666666667, 30.3188], [78.51133333333334, 30.3188], [78.51133333333334, 30.316], [78.51133333333334, 30.3132], [78.51400000000001, 30.3132], [78.51400000000001, 30.310399999999998], [78.51400000000001, 30.3076], [78.51400000000001, 30.307599999999997], [78.51400000000001, 30.3048], [78.51666666666668, 30.3048], [78.51666666666668, 30.302], [78.51400000000001, 30.302], [78.51400000000001, 30.2992], [78.51400000000001, 30.2964], [78.51133333333334, 30.2964], [78.51133333333334, 30.293599999999998], [78.50866666666667, 30.293599999999998], [78.50866666666667, 30.290799999999997], [78.506, 30.290799999999997], [78.50333333333334, 30.290799999999997], [78.50333333333333, 30.290799999999997], [78.50066666666667, 30.290799999999997], [78.498, 30.290799999999997], [78.498, 30.293599999999998], [78.49533333333333, 30.293599999999998], [78.49266666666666, 30.293599999999998], [78.49266666666666, 30.2964], [78.49000000000001, 30.2964], [78.48733333333334, 30.2964], [78.48733333333334, 30.2992], [78.48466666666667, 30.2992], [78.48466666666667, 30.302], [78.482, 30.302], [78.482, 30.3048], [78.47933333333334, 30.3048], [78.47933333333334, 30.307599999999997], [78.47933333333334, 30.3076], [78.47933333333334, 30.310399999999998], [78.47666666666667, 30.310399999999998], [78.47666666666667, 30.3132], [78.474, 30.3132], [78.474, 30.316], [78.474, 30.3188], [78.47133333333333, 30.3188], [78.47133333333333, 30.3216], [78.47133333333333, 30.324399999999997], [78.47133333333333, 30.3244], [78.47133333333333, 30.327199999999998], [78.46866666666666, 30.327199999999998], [78.46866666666666, 30.33]], [[78.48466666666667, 30.380399999999998], [78.48200000000001, 30.380399999999998], [78.482, 30.380399999999998], [78.47933333333334, 30.380399999999998], [78.47666666666667, 30.380399999999998], [78.47666666666667, 30.377599999999997], [78.47666666666667, 30.374799999999997], [78.474, 30.374799999999997], [78.474, 30.372], [78.474, 30.3692], [78.474, 30.3664], [78.474, 30.363599999999998], [78.474, 30.360799999999998], [78.474, 30.358], [78.474, 30.357999999999997], [78.474, 30.3552], [78.474, 30.3524], [78.47666666666667, 30.3524], [78.47666666666667, 30.3496], [78.47666666666667, 30.346799999999998], [78.47933333333334, 30.346799999999998], [78.47933333333334, 30.343999999999998], [78.48200000000001, 30.343999999999998], [78.48200000000001, 30.3412], [78.48466666666667, 30.3412], [78.48733333333334, 30.3412], [78.48733333333334, 30.343999999999998], [78.48733333333334, 30.346799999999998], [78.48733333333334, 30.3496], [78.48466666666667, 30.3496], [78.48466666666667, 30.3524], [78.48466666666667, 30.3552], [78.482, 30.3552], [78.482, 30.357999999999997], [78.482, 30.358], [78.482, 30.360799999999998], [78.482, 30.363599999999998], [78.48466666666667, 30.363599999999998], [78.48466666666667, 30.3664], [78.48466666666667, 30.3692], [78.48733333333334, 30.3692], [78.48733333333334, 30.372], [78.48733333333334, 30.374799999999997], [78.48733333333334, 30.3748], [78.48733333333334, 30.377599999999997], [78.48733333333334, 30.380399999999998], [78.48466666666667, 30.380399999999998]]]}, "properties": {"simulation_id": "proj_tehri_001", "zone": "moderate", "min_depth_m": 1.5, "max_depth_m": 2.5}}, {"type": "Feature", "geometry": {"type": "Polygon", "coordinates": [[[78.474, 30.3524], [78.474, 30.3552], [78.474, 30.357999999999997], [78.474, 30.358], [78.474, 30.360799999999998], [78.474, 30.363599999999998], [78.474, 30.3664], [78.474, 30.3692], [78.474, 30.372], [78.474, 30.3748], [78.47666666666667, 30.3748], [78.47666666666667, 30.377599999999997], [78.47666666666667, 30.380399999999998], [78.47933333333334, 30.380399999999998], [78.47933333333334, 30.377599999999997], [78.482, 30.377599999999997], [78.482, 30.380399999999998], [78.48466666666667, 30.380399999999998], [78.48733333333334, 30.380399999999998], [78.48733333333334, 30.377599999999997], [78.48733333333334, 30.3748], [78.48733333333334, 30.374799999999997], [78.48733333333334, 30.372], [78.48733333333334, 30.3692], [78.48466666666667, 30.3692], [78.48466666666667, 30.3664], [78.48466666666667, 30.363599999999998], [78.48200000000001, 30.363599999999998], [78.48200000000001, 30.360799999999998], [78.48200000000001, 30.358], [78.48200000000001, 30.357999999999997], [78.48200000000001, 30.3552], [78.48466666666667, 30.3552], [78.48466666666667, 30.3524], [78.48466666666667, 30.3496], [78.48733333333334, 30.3496], [78.48733333333334, 30.346799999999998], [78.48733333333334, 30.343999999999998], [78.48733333333334, 30.341199999999997], [78.48466666666667, 30.341199999999997], [78.482, 30.341199999999997], [78.482, 30.343999999999998], [78.47933333333334, 30.343999999999998], [78.47933333333334, 30.346799999999998], [78.47666666666667, 30.346799999999998], [78.47666666666667, 30.3496], [78.47666666666667, 30.3524], [78.474, 30.3524]]]}, "properties": {"simulation_id": "proj_tehri_001", "zone": "deep", "min_depth_m": 3.0, "max_depth_m": 4.0}}, {"type": "Feature", "geometry": {"type": "Polygon", "coordinates": [[[78.48200000000001, 30.377599999999997], [78.48200000000001, 30.380399999999998], [78.47933333333334, 30.380399999999998], [78.47933333333334, 30.377599999999997], [78.48200000000001, 30.377599999999997]]]}, "properties": {"simulation_id": "proj_tehri_001", "zone": "severe", "min_depth_m": 5.0, "max_depth_m": 6.0}}]}