{"type": "FeatureCollection", "features": [{"type": "Feature", "geometry": {"type": "Polygon", "coordinates": [[[78.45266666666667, 30.2992], [78.45266666666667, 30.302], [78.45266666666667, 30.3048], [78.45266666666667, 30.307599999999997], [78.45266666666667, 30.3076], [78.45266666666667, 30.310399999999998], [78.45266666666667, 30.3132], [78.45266666666667, 30.316], [78.45266666666667, 30.3188], [78.45266666666667, 30.3216], [78.45266666666667, 30.324399999999997], [78.45266666666667, 30.3244], [78.45266666666667, 30.327199999999998], [78.45266666666667, 30.33], [78.45266666666667, 30.3328], [78.45266666666667, 30.3356], [78.45266666666667, 30.3384], [78.45266666666667, 30.341199999999997], [78.45266666666667, 30.3412], [78.45266666666667, 30.343999999999998], [78.45266666666667, 30.346799999999998], [78.45266666666667, 30.3496], [78.45266666666667, 30.3524], [78.45266666666667, 30.3552], [78.45266666666667, 30.357999999999997], [78.45266666666667, 30.358], [78.45266666666667, 30.360799999999998], [78.45266666666667, 30.363599999999998], [78.45266666666667, 30.3664], [78.45266666666667, 30.3692], [78.45266666666667, 30.372], [78.45266666666667, 30.374799999999997], [78.45266666666667, 30.3748], [78.45266666666667, 30.377599999999997], [78.45266666666667, 30.380399999999998], [78.45533333333334, 30.380399999999998], [78.45533333333334, 30.3832], [78.45533333333334, 30.386], [78.458, 30.386], [78.458, 30.3888], [78.46066666666667, 30.3888], [78.46066666666667, 30.3916], [78.46333333333334, 30.3916], [78.46333333333334, 30.394399999999997], [78.46600000000001, 30.394399999999997], [78.46866666666666, 30.394399999999997], [78.46866666666668, 30.394399999999997], [78.47133333333333, 30.394399999999997], [78.47133333333333, 30.397199999999998], [78.474, 30.397199999999998], [78.47666666666667, 30.397199999999998], [78.47933333333334, 30.397199999999998], [78.482, 30.397199999999998], [78.48200000000001, 30.397199999999998], [78.48466666666667, 30.397199999999998], [78.48733333333334, 30.397199999999998], [78.49000000000001, 30.397199999999998], [78.49266666666668, 30.397199999999998], [78.49266666666668, 30.394399999999997], [78.49533333333333, 30.394399999999997], [78.498, 30.394399999999997], [78.498, 30.3916], [78.50066666666667, 30.3916], [78.50333333333334, 30.3916], [78.50333333333334, 30.3888], [78.506, 30.3888], [78.506, 30.386], [78.50866666666667, 30.386], [78.50866666666667, 30.3832], [78.51133333333334, 30.3832], [78.51133333333334, 30.380399999999998], [78.51133333333334, 30.377599999999997], [78.51400000000001, 30.377599999999997], [78.51400000000001, 30.3748], [78.51400000000001, 30.374799999999997], [78.51400000000001, 30.372], [78.51666666666668, 30.372], [78.51666666666668, 30.3692], [78.51666666666668, 30.3664], [78.51666666666668, 30.363599999999998], [78.51666666666668, 30.360799999999998], [78.51666666666668, 30.358], [78.51933333333334, 30.358], [78.51933333333334, 30.3552], [78.51933333333334, 30.3524], [78.51933333333334, 30.3496], [78.51933333333334, 30.346799999999998], [78.522, 30.346799999999998], [78.522, 30.343999999999998], [78.522, 30.3412], [78.52466666666668, 30.3412], [78.52466666666668, 30.3384], [78.52466666666668, 30.3356], [78.52466666666668, 30.3328], [78.52733333333335, 30.3328], [78.52733333333335, 30.33], [78.52733333333335, 30.327199999999998], [78.53, 30.327199999999998], [78.53, 30.3244], [78.53, 30.324399999999997], [78.53, 30.3216], [78.53266666666667, 30.3216], [78.53266666666667, 30.3188], [78.53266666666667, 30.316], [78.53533333333334, 30.316], [78.53533333333334, 30.3132], [78.53533333333334, 30.310399999999998], [78.53800000000001, 30.310399999999998], [78.53800000000001, 30.3076], [78.54066666666668, 30.3076], [78.54066666666668, 30.3048], [78.54066666666668, 30.302], [78.54333333333334, 30.302], [78.54333333333334, 30.2992], [78.546, 30.2992], [78.546, 30.2964], [78.546, 30.293599999999998], [78.54866666666668, 30.293599999999998], [78.54866666666668, 30.2908], [78.54866666666668, 30.290799999999997], [78.54866666666668, 30.288], [78.55133333333335, 30.288], [78.55133333333335, 30.2852], [78.55133333333335, 30.2824], [78.55133333333335, 30.2796], [78.554, 30.2796], [78.554, 30.276799999999998], [78.554, 30.274], [78.554, 30.273999999999997], [78.554, 30.2712], [78.554, 30.2684], [78.554, 30.2656], [78.554, 30.2628], [78.554, 30.259999999999998], [78.554, 30.2572], [78.554, 30.257199999999997], [78.554, 30.2544], [78.55133333333335, 30.2544], [78.55133333333335, 30.2516], [78.55133333333335, 30.2488], [78.54866666666668, 30.2488], [78.54866666666668, 30.246], [78.546, 30.246], [78.546, 30.243199999999998], [78.54333333333334, 30.243199999999998], [78.54333333333334, 30.2404], [78.54066666666668, 30.2404], [78.54066666666668, 30.2376], [78.53800000000001, 30.2376], [78.53533333333334, 30.2376], [78.53533333333334, 30.2348], [78.53266666666667, 30.2348], [78.53, 30.2348], [78.52733333333335, 30.2348], [78.52733333333335, 30.232], [78.52466666666668, 30.232], [78.522, 30.232], [78.51933333333334, 30.232], [78.51666666666668, 30.232], [78.51666666666667, 30.232], [78.51400000000001, 30.232], [78.51400000000001, 30.2348], [78.51133333333334, 30.2348], [78.50866666666667, 30.2348], [78.506, 30.2348], [78.50333333333333, 30.2348], [78.50333333333333, 30.2376], [78.50066666666667, 30.2376], [78.498, 30.2376], [78.498, 30.2404], [78.49533333333333, 30.2404], [78.49533333333333, 30.243199999999998], [78.49266666666668, 30.243199999999998], [78.49266666666666, 30.243199999999998], [78.49000000000001, 30.243199999999998], [78.49000000000001, 30.246], [78.48733333333334, 30.246], [78.48733333333334, 30.2488], [78.48466666666667, 30.2488], [78.48466666666667, 30.2516], [78.482, 30.2516], [78.482, 30.2544], [78.47933333333334, 30.2544], [78.47933333333334, 30.257199999999997], [78.47666666666667, 30.257199999999997], [78.47666666666667, 30.259999999999998], [78.474, 30.259999999999998], [78.474, 30.2628], [78.47133333333333, 30.2628], [78.47133333333333, 30.2656], [78.47133333333333, 30.2684], [78.46866666666666, 30.2684], [78.46866666666666, 30.2712], [78.46600000000001, 30.2712], [78.46600000000001, 30.273999999999997], [78.46600000000001, 30.274], [78.46600000000001, 30.276799999999998], [78.46333333333334, 30.276799999999998], [78.46333333333334, 30.2796], [78.46066666666667, 30.2796], [78.46066666666667, 30.2824], [78.46066666666667, 30.2852], [78.458, 30.2852], [78.458, 30.288], [78.458, 30.290799999999997], [78.45533333333334, 30.290799999999997], [78.45533333333334, 30.293599999999998], [78.45533333333334, 30.2964], [78.45533333333334, 30.2992], [78.45266666666667, 30.2992]], [[78.50066666666667, 30.374799999999997], [78.50066666666667, 30.3748], [78.50066666666667, 30.377599999999997], [78.498, 30.377599999999997], [78.498, 30.380399999999998], [78.49533333333333, 30.380399999999998], [78.49533333333333, 30.3832], [78.49266666666666, 30.3832], [78.49266666666666, 30.386], [78.49000000000001, 30.386], [78.48733333333334, 30.386], [78.48733333333334, 30.3888], [78.48466666666667, 30.3888], [78.48200000000001, 30.3888], [78.482, 30.3888], [78.47933333333334, 30.3888], [78.47666666666667, 30.3888], [78.47666666666667, 30.386], [78.474, 30.386], [78.47133333333333, 30.386], [78.47133333333333, 30.3832], [78.46866666666668, 30.3832], [78.46866666666666, 30.3832], [78.46600000000001, 30.3832], [78.46600000000001, 30.380399999999998], [78.46600000000001, 30.377599999999997], [78.46333333333334, 30.377599999999997], [78.46333333333334, 30.374799999999997], [78.46066666666667, 30.374799999999997], [78.46066666666667, 30.372], [78.46066666666667, 30.3692], [78.45800000000001, 30.3692], [78.45800000000001, 30.3664], [78.45800000000001, 30.363599999999998], [78.45800000000001, 30.360799999999998], [78.45533333333334, 30.360799999999998], [78.45533333333334, 30.358], [78.45533333333334, 30.357999999999997], [78.45533333333334, 30.3552], [78.45533333333334, 30.3524], [78.45533333333334, 30.3496], [78.45800000000001, 30.3496], [78.45800000000001, 30.346799999999998], [78.45800000000001, 30.343999999999998], [78.45800000000001, 30.3412], [78.45800000000001, 30.341199999999997], [78.45800000000001, 30.3384], [78.45800000000001, 30.3356], [78.45800000000001, 30.3328], [78.46066666666667, 30.3328], [78.46066666666667, 30.33], [78.46066666666667, 30.327199999999998], [78.46066666666667, 30.3244], [78.46066666666667, 30.324399999999997], [78.46066666666667, 30.3216], [78.46066666666667, 30.3188], [78.46333333333334, 30.3188], [78.46333333333334, 30.316], [78.46333333333334, 30.3132], [78.46333333333334, 30.310399999999998], [78.46600000000001, 30.310399999999998], [78.46600000000001, 30.3076], [78.46600000000001, 30.307599999999997], [78.46600000000001, 30.3048], [78.46600000000001, 30.302], [78.46866666666668, 30.302], [78.46866666666668, 30.2992], [78.47133333333333, 30.2992], [78.47133333333333, 30.2964], [78.47133333333333, 30.293599999999998], [78.474, 30.293599999999998], [78.474, 30.2908], [78.474, 30.290799999999997], [78.474, 30.288], [78.47666666666667, 30.288], [78.47666666666667, 30.2852], [78.47666666666667, 30.2824], [78.47933333333334, 30.2824], [78.47933333333334, 30.2796], [78.47933333333334, 30.276799999999998], [78.48200000000001, 30.276799999999998], [78.48200000000001, 30.274], [78.48200000000001, 30.273999999999997], [78.48200000000001, 30.2712], [78.48466666666667, 30.2712], [78.48466666666667, 30.2684], [78.48466666666667, 30.2656], [78.48733333333334, 30.2656], [78.48733333333334, 30.2628], [78.49000000000001, 30.2628], [78.49000000000001, 30.259999999999998], [78.49000000000001, 30.2572], [78.49266666666668, 30.2572], [78.49266666666668, 30.2544], [78.49533333333333, 30.2544], [78.49533333333333, 30.2516], [78.498, 30.2516], [78.498, 30.2488], [78.50066666666667, 30.2488], [78.50066666666667, 30.246], [78.50333333333333, 30.246], [78.50333333333334, 30.246], [78.506, 30.246], [78.506, 30.2432], [78.50866666666667, 30.2432], [78.51133333333334, 30.2432], [78.51133333333334, 30.2404], [78.51400000000001, 30.2404], [78.51666666666667, 30.2404], [78.51666666666668, 30.2404], [78.51933333333334, 30.2404], [78.522, 30.2404], [78.52466666666668, 30.2404], [78.52733333333333, 30.2404], [78.52733333333335, 30.2404], [78.53, 30.2404], [78.53266666666667, 30.2404], [78.53533333333334, 30.2404], [78.53533333333334, 30.2432], [78.53800000000001, 30.2432], [78.53800000000001, 30.246], [78.54066666666667, 30.246], [78.54066666666667, 30.2488], [78.54333333333334, 30.2488], [78.54333333333334, 30.2516], [78.546, 30.2516], [78.546, 30.2544], [78.546, 30.2572], [78.54866666666668, 30.2572], [78.54866666666668, 30.259999999999998], [78.54866666666668, 30.2628], [78.54866666666668, 30.2656], [78.546, 30.2656], [78.546, 30.2684], [78.546, 30.2712], [78.546, 30.273999999999997], [78.54333333333334, 30.273999999999997], [78.54333333333334, 30.276799999999998], [78.54333333333334, 30.2796], [78.54333333333334, 30.2824], [78.54066666666667, 30.2824], [78.54066666666667, 30.2852], [78.54066666666667, 30.288], [78.53800000000001, 30.288], [78.53800000000001, 30.290799999999997], [78.53533333333334, 30.290799999999997], [78.53533333333334, 30.293599999999998], [78.53533333333334, 30.2964], [78.53266666666667, 30.2964], [78.53266666666667, 30.2992], [78.53, 30.2992], [78.53, 30.302], [78.52733333333333, 30.302], [78.52733333333333, 30.3048], [78.52733333333333, 30.307599999999997], [78.52466666666668, 30.307599999999997], [78.52466666666668, 30.310399999999998], [78.522, 30.310399999999998], [78.522, 30.3132], [78.51933333333334, 30.3132], [78.51933333333334, 30.316], [78.51933333333334, 30.3188], [78.51666666666667, 30.3188], [78.51666666666667, 30.3216], [78.51666666666667, 30.324399999999997], [78.51400000000001, 30.324399999999997], [78.51400000000001, 30.327199999999998], [78.51400000000001, 30.33], [78.51133333333334, 30.33], [78.51133333333334, 30.3328], [78.51133333333334, 30.3356], [78.50866666666667, 30.3356], [78.50866666666667, 30.3384], [78.50866666666667, 30.341199999999997], [78.506, 30.341199999999997], [78.506, 30.343999999999998], [78.506, 30.346799999999998], [78.50333333333333, 30.346799999999998], [78.50333333333333, 30.3496], [78.50333333333333, 30.3524], [78.50333333333333, 30.3552], [78.50333333333333, 30.357999999999997], [78.50066666666667, 30.357999999999997], [78.50066666666667, 30.360799999999998], [78.50066666666667, 30.363599999999998], [78.50066666666667, 30.3664], [78.50066666666667, 30.3692], [78.50066666666667, 30.372], [78.50066666666667, 30.374799999999997]]]}, "properties": {"simulation_id": "proj_tehri_001", "zone": "shallow", "min_depth_m": 0.1, "max_depth_m": 1.0}}, {"type": "Feature", "geometry": {"type": "MultiPolygon", "coordinates": [[[[78.46066666666667, 30.3244], [78.46066666666667, 30.327199999999998], [78.46066666666667, 30.33], [78.46066666666667, 30.3328], [78.458, 30.3328], [78.458, 30.3356], [78.458, 30.3384], [78.458, 30.341199999999997], [78.458, 30.3412], [78.458, 30.343999999999998], [78.458, 30.346799999999998], [78.458, 30.3496], [78.45533333333334, 30.3496], [78.45533333333334, 30.3524], [78.45533333333334, 30.3552], [78.45533333333334, 30.357999999999997], [78.45533333333334, 30.358], [78.45533333333334, 30.360799999999998], [78.458, 30.360799999999998], [78.458, 30.363599999999998], [78.458, 30.3664], [78.458, 30.3692], [78.46066666666667, 30.3692], [78.46066666666667, 30.372], [78.46066666666667, 30.3748], [78.46333333333334, 30.3748], [78.46333333333334, 30.377599999999997], [78.46600000000001, 30.377599999999997], [78.46600000000001, 30.380399999999998], [78.46600000000001, 30.3832], [78.46866666666666, 30.3832], [78.46866666666668, 30.3832], [78.47133333333333, 30.3832], [78.47133333333333, 30.380399999999998], [78.46866666666668, 30.380399999999998], [78.46866666666668, 30.377599999999997], [78.46866666666668, 30.374799999999997], [78.46600000000001, 30.374799999999997], [78.46600000000001, 30.372], [78.46600000000001, 30.3692], [78.46600000000001, 30.3664], [78.46333333333334, 30.3664], [78.46333333333334, 30.363599999999998], [78.46333333333334, 30.360799999999998], [78.46333333333334, 30.358], [78.46333333333334, 30.357999999999997], [78.46333333333334, 30.3552], [78.46333333333334, 30.3524], [78.46333333333334, 30.3496], [78.46333333333334, 30.346799999999998], [78.46333333333334, 30.343999999999998], [78.46333333333334, 30.3412], [78.46600000000001, 30.3412], [78.46600000000001, 30.3384], [78.46600000000001, 30.3356], [78.46600000000001, 30.3328], [78.46866666666668, 30.3328], [78.46866666666668, 30.33], [78.46866666666668, 30.327199999999998], [78.46866666666668, 30.3244], [78.46866666666668, 30.324399999999997], [78.46866666666668, 30.3216], [78.47133333333333, 30.3216], [78.47133333333333, 30.3188], [78.47133333333333, 30.316], [78.47133333333333, 30.3132], [78.474, 30.3132], [78.474, 30.310399999999998], [78.474, 30.3076], [78.47666666666667, 30.3076], [78.47666666666667, 30.3048], [78.47666666666667, 30.302], [78.47933333333334, 30.302], [78.47933333333334, 30.2992], [78.48200000000001, 30.2992], [78.48200000000001, 30.2964], [78.48466666666667, 30.2964], [78.48466666666667, 30.293599999999998], [78.48466666666667, 30.2908], [78.48733333333334, 30.2908], [78.48733333333334, 30.288], [78.48733333333334, 30.2852], [78.49000000000001, 30.2852], [78.49000000000001, 30.2824], [78.49000000000001, 30.2796], [78.49266666666668, 30.2796], [78.49266666666668, 30.276799999999998], [78.49533333333333, 30.276799999999998], [78.49533333333333, 30.274], [78.49533333333333, 30.273999999999997], [78.49533333333333, 30.2712], [78.498, 30.2712], [78.498, 30.2684], [78.50066666666667, 30.2684], [78.50066666666667, 30.2656], [78.50066666666667, 30.2628], [78.50333333333334, 30.2628], [78.50333333333334, 30.259999999999998], [78.506, 30.259999999999998], [78.506, 30.2572], [78.50866666666667, 30.2572], [78.50866666666667, 30.2544], [78.51133333333334, 30.2544], [78.51133333333334, 30.2516], [78.51400000000001, 30.2516], [78.51400000000001, 30.2488], [78.51666666666667, 30.2488], [78.51666666666668, 30.2488], [78.51933333333334, 30.2488], [78.522, 30.2488], [78.522, 30.246], [78.52466666666668, 30.246], [78.52733333333333, 30.246], [78.52733333333333, 30.2488], [78.53, 30.2488], [78.53266666666667, 30.2488], [78.53533333333334, 30.2488], [78.53533333333334, 30.2516], [78.53800000000001, 30.2516], [78.53800000000001, 30.2544], [78.53800000000001, 30.2572], [78.54066666666667, 30.2572], [78.54066666666667, 30.259999999999998], [78.54066666666667, 30.2628], [78.54066666666667, 30.2656], [78.53800000000001, 30.2656], [78.53800000000001, 30.2684], [78.53800000000001, 30.2712], [78.53800000000001, 30.273999999999997], [78.53800000000001, 30.274], [78.53800000000001, 30.276799999999998], [78.53533333333334, 30.276799999999998], [78.53533333333334, 30.2796], [78.53533333333334, 30.2824], [78.53266666666667, 30.2824], [78.53266666666667, 30.2852], [78.53266666666667, 30.288], [78.53, 30.288], [78.53, 30.290799999999997], [78.53, 30.2908], [78.53, 30.293599999999998], [78.52733333333333, 30.293599999999998], [78.52733333333333, 30.2964], [78.52466666666668, 30.2964], [78.52466666666668, 30.2992], [78.52466666666668, 30.302], [78.522, 30.302], [78.522, 30.3048], [78.51933333333334, 30.3048], [78.51933333333334, 30.307599999999997], [78.51933333333334, 30.3076], [78.51933333333334, 30.310399999999998], [78.51666666666667, 30.310399999999998], [78.51666666666667, 30.3132], [78.51400000000001, 30.3132], [78.51400000000001, 30.316], [78.51133333333334, 30.316], [78.51133333333334, 30.3188], [78.51133333333334, 30.3216], [78.50866666666667, 30.3216], [78.50866666666667, 30.324399999999997], [78.50866666666667, 30.3244], [78.50866666666667, 30.327199999999998], [78.506, 30.327199999999998], [78.506, 30.33], [78.506, 30.3328], [78.50333333333333, 30.3328], [78.50333333333333, 30.3356], [78.50333333333333, 30.3384], [78.50066666666667, 30.3384], [78.50066666666667, 30.341199999999997], [78.50066666666667, 30.3412], [78.50066666666667, 30.343999999999998], [78.498, 30.343999999999998], [78.498, 30.346799999999998], [78.498, 30.3496], [78.498, 30.3524], [78.49533333333333, 30.3524], [78.49533333333333, 30.3552], [78.49533333333333, 30.357999999999997], [78.49533333333333, 30.358], [78.49533333333333, 30.360799999999998], [78.49533333333333, 30.363599999999998], [78.49533333333333, 30.3664], [78.49533333333333, 30.3692], [78.49533333333333, 30.372], [78.49533333333333, 30.374799999999997], [78.49533333333333, 30.3748], [78.49533333333333, 30.377599999999997], [78.49266666666666, 30.377599999999997], [78.49266666666666, 30.380399999999998], [78.49000000000001, 30.380399999999998], [78.49000000000001, 30.3832], [78.48733333333334, 30.3832], [78.48466666666667, 30.3832], [78.48466666666667, 30.386], [78.48200000000001, 30.386], [78.482, 30.386], [78.47933333333334, 30.386], [78.47666666666667, 30.386], [78.47666666666667, 30.3888], [78.47933333333334, 30.3888], [78.482, 30.3888], [78.48200000000001, 30.3888], [78.48466666666667, 30.3888], [78.48733333333334, 30.3888], [78.48733333333334, 30.386], [78.49000000000001, 30.386], [78.49266666666668, 30.386], [78.49266666666668, 30.3832], [78.49533333333333, 30.3832], [78.49533333333333, 30.380399999999998], [78.498, 30.380399999999998], [78.498, 30.377599999999997], [78.50066666666667, 30.377599999999997], [78.50066666666667, 30.3748], [78.50066666666667, 30.374799999999997], [78.50066666666667, 30.372], [78.50066666666667, 30.3692], [78.50066666666667, 30.3664], [78.50066666666667, 30.363599999999998], [78.50066666666667, 30.360799999999998], [78.50066666666667, 30.358], [78.50333333333334, 30.358], [78.50333333333334, 30.3552], [78.50333333333334, 30.3524], [78.50333333333334, 30.3496], [78.50333333333334, 30.346799999999998], [78.506, 30.346799999999998], [78.506, 30.343999999999998], [78.506, 30.3412], [78.50866666666667, 30.3412], [78.50866666666667, 30.3384], [78.50866666666667, 30.3356], [78.51133333333334, 30.3356], [78.51133333333334, 30.3328], [78.51133333333334, 30.33], [78.51400000000001, 30.33], [78.51400000000001, 30.327199999999998], [78.51400000000001, 30.3244], [78.51666666666668, 30.3244], [78.51666666666668, 30.3216], [78.51666666666668, 30.3188], [78.51933333333334, 30.3188], [78.51933333333334, 30.316], [78.51933333333334, 30.3132], [78.522, 30.3132], [78.522, 30.310399999999998], [78.52466666666668, 30.310399999999998], [78.52466666666668, 30.3076], [78.52733333333335, 30.3076], [78.52733333333335, 30.3048], [78.52733333333335, 30.302], [78.53, 30.302], [78.53, 30.2992], [78.53266666666667, 30.2992], [78.53266666666667, 30.2964], [78.53533333333334, 30.2964], [78.53533333333334, 30.293599999999998], [78.53533333333334, 30.2908], [78.53800000000001, 30.2908], [78.53800000000001, 30.288], [78.54066666666668, 30.288], [78.54066666666668, 30.2852], [78.54066666666668, 30.2824], [78.54333333333334, 30.2824], [78.54333333333334, 30.2796], [78.54333333333334, 30.276799999999998], [78.54333333333334, 30.274], [78.546, 30.274], [78.546, 30.2712], [78.546, 30.2684], [78.546, 30.2656], [78.54866666666668, 30.2656], [78.54866666666668, 30.2628], [78.54866666666668, 30.259999999999998], [78.54866666666668, 30.257199999999997], [78.546, 30.257199999999997], [78.546, 30.2544], [78.546, 30.2516], [78.54333333333334, 30.2516], [78.54333333333334, 30.2488], [78.54066666666668, 30.2488], [78.54066666666668, 30.246], [78.53800000000001, 30.246], [78.53800000000001, 30.243199999999998], [78.53533333333334, 30.243199999999998], [78.53533333333334, 30.2404], [78.53266666666667, 30.2404], [78.53, 30.2404], [78.52733333333335, 30.2404], [78.52733333333333, 30.2404], [78.52466666666668, 30.2404], [78.522, 30.2404], [78.51933333333334, 30.2404], [78.51666666666668, 30.2404], [78.51666666666667, 30.2404], [78.51400000000001, 30.2404], [78.51133333333334, 30.2404], [78.51133333333334, 30.243199999999998], [78.50866666666667, 30.243199999999998], [78.506, 30.243199999999998], [78.506, 30.246], [78.50333333333334, 30.246], [78.50333333333333, 30.246], [78.50066666666667, 30.246], [78.50066666666667, 30.2488], [78.498, 30.2488], [78.498, 30.2516], [78.49533333333333, 30.2516], [78.49533333333333, 30.2544], [78.49266666666666, 30.2544], [78.49266666666666, 30.257199999999997], [78.49000000000001, 30.257199999999997], [78.49000000000001, 30.259999999999998], [78.49000000000001, 30.2628], [78.48733333333334, 30.2628], [78.48733333333334, 30.2656], [78.48466666666667, 30.2656], [78.48466666666667, 30.2684], [78.48466666666667, 30.2712], [78.482, 30.2712], [78.482, 30.273999999999997], [78.482, 30.274], [78.482, 30.276799999999998], [78.47933333333334, 30.276799999999998], [78.47933333333334, 30.2796], [78.47933333333334, 30.2824], [78.47666666666667, 30.2824], [78.47666666666667, 30.2852], [78.47666666666667, 30.288], [78.474, 30.288], [78.474, 30.290799999999997], [78.474, 30.2908], [78.474, 30.293599999999998], [78.47133333333333, 30.293599999999998], [78.47133333333333, 30.2964], [78.47133333333333, 30.2992], [78.46866666666666, 30.2992], [78.46866666666666, 30.302], [78.46600000000001, 30.302], [78.46600000000001, 30.3048], [78.46600000000001, 30.307599999999997], [78.46600000000001, 30.3076], [78.46600000000001, 30.310399999999998], [78.46333333333334, 30.310399999999998], [78.46333333333334, 30.3132], [78.46333333333334, 30.316], [78.46333333333334, 30.3188], [78.46066666666667, 30.3188], [78.46066666666667, 30.3216], [78.46066666666667, 30.324399999999997], [78.46066666666667, 30.3244]]], [[[78.47666666666667, 30.386], [78.47666666666667, 30.3832], [78.474, 30.3832], [78.47133333333333, 30.3832], [78.47133333333333, 30.386], [78.474, 30.386], [78.47666666666667, 30.386]]]]}, "properties": {"simulation_id": "proj_tehri_001", "zone": "moderate", "min_depth_m": 1.5, "max_depth_m": 2.5}}, {"type": "Feature", "geometry": {"type": "Polygon", "coordinates": [[[78.474, 30.3132], [78.47133333333333, 30.3132], [78.47133333333333, 30.316], [78.47133333333333, 30.3188], [78.47133333333333, 30.3216], [78.46866666666666, 30.3216], [78.46866666666666, 30.324399999999997], [78.46866666666666, 30.3244], [78.46866666666666, 30.327199999999998], [78.46866666666666, 30.33], [78.46866666666666, 30.3328], [78.46600000000001, 30.3328], [78.46600000000001, 30.3356], [78.46600000000001, 30.3384], [78.46600000000001, 30.341199999999997], [78.46333333333334, 30.341199999999997], [78.46333333333334, 30.343999999999998], [78.46333333333334, 30.346799999999998], [78.46333333333334, 30.3496], [78.46333333333334, 30.3524], [78.46333333333334, 30.3552], [78.46333333333334, 30.357999999999997], [78.46333333333334, 30.358], [78.46333333333334, 30.360799999999998], [78.46333333333334, 30.363599999999998], [78.46333333333334, 30.3664], [78.46600000000001, 30.3664], [78.46600000000001, 30.3692], [78.46600000000001, 30.372], [78.46600000000001, 30.3748], [78.46866666666666, 30.3748], [78.46866666666666, 30.377599999999997], [78.46866666666666, 30.380399999999998], [78.47133333333333, 30.380399999999998], [78.47133333333333, 30.3832], [78.474, 30.3832], [78.47666666666667, 30.3832], [78.47666666666667, 30.386], [78.47933333333334, 30.386], [78.482, 30.386], [78.48200000000001, 30.386], [78.48466666666667, 30.386], [78.48466666666667, 30.3832], [78.48733333333334, 30.3832], [78.49000000000001, 30.3832], [78.49000000000001, 30.380399999999998], [78.49266666666668, 30.380399999999998], [78.49266666666668, 30.377599999999997], [78.49533333333333, 30.377599999999997], [78.49533333333333, 30.3748], [78.49533333333333, 30.374799999999997], [78.49533333333333, 30.372], [78.49533333333333, 30.3692], [78.49533333333333, 30.3664], [78.49533333333333, 30.363599999999998], [78.49533333333333, 30.360799999999998], [78.49533333333333, 30.358], [78.49533333333333, 30.357999999999997], [78.49533333333333, 30.3552], [78.49533333333333, 30.3524], [78.498, 30.3524], [78.498, 30.3496], [78.498, 30.346799999999998], [78.498, 30.343999999999998], [78.50066666666667, 30.343999999999998], [78.50066666666667, 30.3412], [78.50066666666667, 30.341199999999997], [78.50066666666667, 30.3384], [78.50333333333334, 30.3384], [78.50333333333334, 30.3356], [78.50333333333334, 30.3328], [78.506, 30.3328], [78.506, 30.33], [78.506, 30.327199999999998], [78.50866666666667, 30.327199999999998], [78.50866666666667, 30.3244], [78.50866666666667, 30.324399999999997], [78.50866666666667, 30.3216], [78.51133333333334, 30.3216], [78.51133333333334, 30.3188], [78.51133333333334, 30.316], [78.51400000000001, 30.316], [78.51400000000001, 30.3132], [78.51666666666668, 30.3132], [78.51666666666668, 30.310399999999998], [78.51933333333334, 30.310399999999998], [78.51933333333334, 30.3076], [78.51933333333334, 30.307599999999997], [78.51933333333334, 30.3048], [78.522, 30.3048], [78.522, 30.302], [78.52466666666668, 30.302], [78.52466666666668, 30.2992], [78.52466666666668, 30.2964], [78.52733333333335, 30.2964], [78.52733333333335, 30.293599999999998], [78.53, 30.293599999999998], [78.53, 30.2908], [78.53, 30.290799999999997], [78.53, 30.288], [78.53266666666667, 30.288], [78.53266666666667, 30.2852], [78.53266666666667, 30.2824], [78.53533333333334, 30.2824], [78.53533333333334, 30.2796], [78.53533333333334, 30.276799999999998], [78.53800000000001, 30.276799999999998], [78.53800000000001, 30.274], [78.53800000000001, 30.273999999999997], [78.53800000000001, 30.2712], [78.53800000000001, 30.2684], [78.53800000000001, 30.2656], [78.54066666666668, 30.2656], [78.54066666666668, 30.2628], [78.54066666666668, 30.259999999999998], [78.54066666666668, 30.257199999999997], [78.53800000000001, 30.257199999999997], [78.53800000000001, 30.2544], [78.53800000000001, 30.2516], [78.53533333333334, 30.2516], [78.53533333333334, 30.2488], [78.53266666666667, 30.2488], [78.53, 30.2488], [78.52733333333335, 30.2488], [78.52733333333335, 30.246], [78.52466666666668, 30.246], [78.522, 30.246], [78.522, 30.2488], [78.51933333333334, 30.2488], [78.51666666666668, 30.2488], [78.51666666666667, 30.2488], [78.51400000000001, 30.2488], [78.51400000000001, 30.2516], [78.51133333333334, 30.2516], [78.51133333333334, 30.2544], [78.50866666666667, 30.2544], [78.50866666666667, 30.257199999999997], [78.506, 30.257199999999997], [78.506, 30.259999999999998], [78.50333333333333, 30.259999999999998], [78.50333333333333, 30.2628], [78.50066666666667, 30.2628], [78.50066666666667, 30.2656], [78.50066666666667, 30.2684], [78.498, 30.2684], [78.498, 30.2712], [78.49533333333333, 30.2712], [78.49533333333333, 30.273999999999997], [78.49533333333333, 30.274], [78.49533333333333, 30.276799999999998], [78.49266666666666, 30.276799999999998], [78.49266666666666, 30.2796], [78.49000000000001, 30.2796], [78.49000000000001, 30.2824], [78.49000000000001, 30.2852], [78.48733333333334, 30.2852], [78.48733333333334, 30.288], [78.48733333333334, 30.290799999999997], [78.48466666666667, 30.290799999999997], [78.48466666666667, 30.293599999999998], [78.48466666666667, 30.2964], [78.482, 30.2964], [78.482, 30.2992], [78.47933333333334, 30.2992], [78.47933333333334, 30.302], [78.47666666666667, 30.302], [78.47666666666667, 30.3048], [78.47666666666667, 30.307599999999997], [78.474, 30.307599999999997], [78.474, 30.310399999999998], [78.474, 30.3132]], [[78.498, 30.316], [78.498, 30.3188], [78.498, 30.3216], [78.49533333333333, 30.3216], [78.49266666666666, 30.3216], [78.49266666666666, 30.324399999999997], [78.49000000000001, 30.324399999999997], [78.49000000000001, 30.3216], [78.49000000000001, 30.3188], [78.49000000000001, 30.316], [78.49266666666668, 30.316], [78.49266666666668, 30.3132], [78.49266666666668, 30.310399999999998], [78.49533333333333, 30.310399999999998], [78.498, 30.310399999999998], [78.498, 30.3076], [78.50066666666667, 30.3076], [78.50066666666667, 30.310399999999998], [78.50066666666667, 30.3132], [78.50066666666667, 30.316], [78.498, 30.316]], [[78.47666666666667, 30.380399999999998], [78.474, 30.380399999999998], [78.474, 30.377599999999997], [78.474, 30.3748], [78.474, 30.374799999999997], [78.474, 30.372], [78.47133333333333, 30.372], [78.47133333333333, 30.3692], [78.47133333333333, 30.3664], [78.47133333333333, 30.363599999999998], [78.47133333333333, 30.360799999999998], [78.47133333333333, 30.358], [78.47133333333333, 30.357999999999997], [78.47133333333333, 30.3552], [78.47133333333333, 30.3524], [78.47133333333333, 30.3496], [78.474, 30.3496], [78.474, 30.346799999999998], [78.474, 30.343999999999998], [78.47666666666667, 30.343999999999998], [78.47666666666667, 30.3412], [78.47933333333334, 30.3412], [78.47933333333334, 30.3384], [78.48200000000001, 30.3384], [78.48200000000001, 30.3356], [78.48466666666667, 30.3356], [78.48466666666667, 30.3328], [78.48733333333334, 30.3328], [78.48733333333334, 30.33], [78.49000000000001, 30.33], [78.49266666666666, 30.33], [78.49266666666666, 30.3328], [78.49266666666666, 30.3356], [78.49266666666666, 30.3384], [78.49266666666666, 30.341199999999997], [78.49266666666666, 30.3412], [78.49266666666666, 30.343999999999998], [78.49000000000001, 30.343999999999998], [78.49000000000001, 30.346799999999998], [78.49000000000001, 30.3496], [78.48733333333334, 30.3496], [78.48733333333334, 30.3524], [78.48733333333334, 30.3552], [78.48466666666667, 30.3552], [78.48466666666667, 30.357999999999997], [78.48466666666667, 30.358], [78.48466666666667, 30.360799999999998], [78.48466666666667, 30.363599999999998], [78.48733333333334, 30.363599999999998], [78.48733333333334, 30.3664], [78.48733333333334, 30.3692], [78.48733333333334, 30.372], [78.48733333333334, 30.374799999999997], [78.48733333333334, 30.3748], [78.48733333333334, 30.377599999999997], [78.48733333333334, 30.380399999999998], [78.48466666666667, 30.380399999999998], [78.482, 30.380399999999998], [78.482, 30.3832], [78.47933333333334, 30.3832], [78.47933333333334, 30.380399999999998], [78.47666666666667, 30.380399999999998]]]}, "properties": {"simulation_id": "proj_tehri_001", "zone": "deep", "min_depth_m": 3.0, "max_depth_m": 4.0}}, {"type": "Feature", "geometry": {"type": "MultiPolygon", "coordinates": [[[[78.47133333333333, 30.3524], [78.47133333333333, 30.3552], [78.47133333333333, 30.357999999999997], [78.47133333333333, 30.358], [78.47133333333333, 30.360799999999998], [78.47133333333333, 30.363599999999998], [78.47133333333333, 30.3664], [78.47133333333333, 30.3692], [78.47133333333333, 30.372], [78.474, 30.372], [78.474, 30.374799999999997], [78.474, 30.3748], [78.474, 30.377599999999997], [78.474, 30.380399999999998], [78.47666666666667, 30.380399999999998], [78.47933333333334, 30.380399999999998], [78.47933333333334, 30.3832], [78.48200000000001, 30.3832], [78.48200000000001, 30.380399999999998], [78.48466666666667, 30.380399999999998], [78.48733333333334, 30.380399999999998], [78.48733333333334, 30.377599999999997], [78.48733333333334, 30.3748], [78.48733333333334, 30.374799999999997], [78.48733333333334, 30.372], [78.48733333333334, 30.3692], [78.48733333333334, 30.3664], [78.48733333333334, 30.363599999999998], [78.48466666666667, 30.363599999999998], [78.48466666666667, 30.360799999999998], [78.48466666666667, 30.358], [78.48466666666667, 30.357999999999997], [78.48466666666667, 30.3552], [78.48733333333334, 30.3552], [78.48733333333334, 30.3524], [78.48733333333334, 30.3496], [78.49000000000001, 30.3496], [78.49000000000001, 30.346799999999998], [78.49000000000001, 30.343999999999998], [78.49266666666668, 30.343999999999998], [78.49266666666668, 30.3412], [78.49266666666668, 30.341199999999997], [78.49266666666668, 30.3384], [78.49266666666668, 30.3356], [78.49266666666668, 30.3328], [78.49266666666668, 30.33], [78.49000000000001, 30.33], [78.48733333333334, 30.33], [78.48733333333334, 30.3328], [78.48466666666667, 30.3328], [78.48466666666667, 30.3356], [78.482, 30.3356], [78.482, 30.3384], [78.47933333333334, 30.3384], [78.47933333333334, 30.341199999999997], [78.47666666666667, 30.341199999999997], [78.47666666666667, 30.343999999999998], [78.474, 30.343999999999998], [78.474, 30.346799999999998], [78.474, 30.3496], [78.47133333333333, 30.3496], [78.47133333333333, 30.3524]]], [[[78.49266666666666, 30.316], [78.49000000000001, 30.316], [78.49000000000001, 30.3188], [78.49000000000001, 30.3216], [78.49000000000001, 30.3244], [78.49266666666668, 30.3244], [78.49266666666668, 30.3216], [78.49533333333333, 30.3216], [78.498, 30.3216], [78.498, 30.3188], [78.498, 30.316], [78.50066666666667, 30.316], [78.50066666666667, 30.3132], [78.50066666666667, 30.310399999999998], [78.50066666666667, 30.307599999999997], [78.498, 30.307599999999997], [78.498, 30.310399999999998], [78.49533333333333, 30.310399999999998], [78.49266666666666, 30.310399999999998], [78.49266666666666, 30.3132], [78.49266666666666, 30.316]]]]}, "properties": {"simulation_id": "proj_tehri_001", "zone": "severe", "min_depth_m": 5.0, "max_depth_m": 8.578761266970556}}]}