<?xml version="1.0" encoding="UTF-8"?>
<kml xmlns="http://www.opengis.net/kml/2.2">
  <Document>
    <name>Dam Break Flood Inundation - 29cf45aa-0c81-4129-8f1d-b682ec0024ff</name>
    <Style id="floodPoly">
      <PolyStyle>
        <color>7fff0000</color>
        <outline>1</outline>
      </PolyStyle>
      <LineStyle>
        <color>ffff0000</color>
        <width>2</width>
      </LineStyle>
    </Style>
    <Placemark>
      <name>Peak Inundation Extent</name>
      <description>Simulated Dam-Break Inundation Boundary</description>
      <styleUrl>#floodPoly</styleUrl>
      <Polygon>
        <outerBoundaryIs>
          <LinearRing>
            <coordinates>78.45266666666667,30.2992,0 78.45266666666667,30.302,0 78.45266666666667,30.3048,0 78.45266666666667,30.307599999999997,0 78.45266666666667,30.3076,0 78.45266666666667,30.310399999999998,0 78.45266666666667,30.3132,0 78.45266666666667,30.316,0 78.45266666666667,30.3188,0 78.45266666666667,30.3216,0 78.45266666666667,30.324399999999997,0 78.45266666666667,30.3244,0 78.45266666666667,30.327199999999998,0 78.45266666666667,30.33,0 78.45266666666667,30.3328,0 78.45266666666667,30.3356,0 78.45266666666667,30.3384,0 78.45266666666667,30.341199999999997,0 78.45266666666667,30.3412,0 78.45266666666667,30.343999999999998,0 78.45266666666667,30.346799999999998,0 78.45266666666667,30.3496,0 78.45266666666667,30.3524,0 78.45266666666667,30.3552,0 78.45266666666667,30.357999999999997,0 78.45266666666667,30.358,0 78.45266666666667,30.360799999999998,0 78.45266666666667,30.363599999999998,0 78.45266666666667,30.3664,0 78.45266666666667,30.3692,0 78.45266666666667,30.372,0 78.45266666666667,30.374799999999997,0 78.45266666666667,30.3748,0 78.45266666666667,30.377599999999997,0 78.45266666666667,30.380399999999998,0 78.45533333333334,30.380399999999998,0 78.45533333333334,30.3832,0 78.45533333333334,30.386,0 78.458,30.386,0 78.458,30.3888,0 78.46066666666667,30.3888,0 78.46066666666667,30.3916,0 78.46333333333334,30.3916,0 78.46333333333334,30.394399999999997,0 78.46600000000001,30.394399999999997,0 78.46866666666666,30.394399999999997,0 78.46866666666668,30.394399999999997,0 78.47133333333333,30.394399999999997,0 78.47133333333333,30.397199999999998,0 78.474,30.397199999999998,0 78.47666666666667,30.397199999999998,0 78.47933333333334,30.397199999999998,0 78.482,30.397199999999998,0 78.48200000000001,30.397199999999998,0 78.48466666666667,30.397199999999998,0 78.48733333333334,30.397199999999998,0 78.49000000000001,30.397199999999998,0 78.49266666666668,30.397199999999998,0 78.49266666666668,30.394399999999997,0 78.49533333333333,30.394399999999997,0 78.498,30.394399999999997,0 78.498,30.3916,0 78.50066666666667,30.3916,0 78.50333333333334,30.3916,0 78.50333333333334,30.3888,0 78.506,30.3888,0 78.506,30.386,0 78.50866666666667,30.386,0 78.50866666666667,30.3832,0 78.51133333333334,30.3832,0 78.51133333333334,30.380399999999998,0 78.51133333333334,30.377599999999997,0 78.51400000000001,30.377599999999997,0 78.51400000000001,30.3748,0 78.51400000000001,30.374799999999997,0 78.51400000000001,30.372,0 78.51666666666668,30.372,0 78.51666666666668,30.3692,0 78.51666666666668,30.3664,0 78.51666666666668,30.363599999999998,0 78.51666666666668,30.360799999999998,0 78.51666666666668,30.358,0 78.51933333333334,30.358,0 78.51933333333334,30.3552,0 78.51933333333334,30.3524,0 78.51933333333334,30.3496,0 78.51933333333334,30.346799999999998,0 78.522,30.346799999999998,0 78.522,30.343999999999998,0 78.522,30.3412,0 78.52466666666668,30.3412,0 78.52466666666668,30.3384,0 78.52466666666668,30.3356,0 78.52466666666668,30.3328,0 78.52733333333335,30.3328,0 78.52733333333335,30.33,0 78.52733333333335,30.327199999999998,0 78.53,30.327199999999998,0 78.53,30.3244,0 78.53,30.324399999999997,0 78.53,30.3216,0 78.53266666666667,30.3216,0 78.53266666666667,30.3188,0 78.53266666666667,30.316,0 78.53533333333334,30.316,0 78.53533333333334,30.3132,0 78.53533333333334,30.310399999999998,0 78.53800000000001,30.310399999999998,0 78.53800000000001,30.3076,0 78.54066666666668,30.3076,0 78.54066666666668,30.3048,0 78.54066666666668,30.302,0 78.54333333333334,30.302,0 78.54333333333334,30.2992,0 78.546,30.2992,0 78.546,30.2964,0 78.546,30.293599999999998,0 78.54866666666668,30.293599999999998,0 78.54866666666668,30.2908,0 78.54866666666668,30.290799999999997,0 78.54866666666668,30.288,0 78.55133333333335,30.288,0 78.55133333333335,30.2852,0 78.55133333333335,30.2824,0 78.55133333333335,30.2796,0 78.554,30.2796,0 78.554,30.276799999999998,0 78.554,30.274,0 78.554,30.273999999999997,0 78.554,30.2712,0 78.554,30.2684,0 78.554,30.2656,0 78.554,30.2628,0 78.554,30.259999999999998,0 78.554,30.2572,0 78.554,30.257199999999997,0 78.554,30.2544,0 78.55133333333335,30.2544,0 78.55133333333335,30.2516,0 78.55133333333335,30.2488,0 78.54866666666668,30.2488,0 78.54866666666668,30.246,0 78.546,30.246,0 78.546,30.243199999999998,0 78.54333333333334,30.243199999999998,0 78.54333333333334,30.2404,0 78.54066666666668,30.2404,0 78.54066666666668,30.2376,0 78.53800000000001,30.2376,0 78.53533333333334,30.2376,0 78.53533333333334,30.2348,0 78.53266666666667,30.2348,0 78.53,30.2348,0 78.52733333333335,30.2348,0 78.52733333333335,30.232,0 78.52466666666668,30.232,0 78.522,30.232,0 78.51933333333334,30.232,0 78.51666666666668,30.232,0 78.51666666666667,30.232,0 78.51400000000001,30.232,0 78.51400000000001,30.2348,0 78.51133333333334,30.2348,0 78.50866666666667,30.2348,0 78.506,30.2348,0 78.50333333333333,30.2348,0 78.50333333333333,30.2376,0 78.50066666666667,30.2376,0 78.498,30.2376,0 78.498,30.2404,0 78.49533333333333,30.2404,0 78.49533333333333,30.243199999999998,0 78.49266666666668,30.243199999999998,0 78.49266666666666,30.243199999999998,0 78.49000000000001,30.243199999999998,0 78.49000000000001,30.246,0 78.48733333333334,30.246,0 78.48733333333334,30.2488,0 78.48466666666667,30.2488,0 78.48466666666667,30.2516,0 78.482,30.2516,0 78.482,30.2544,0 78.47933333333334,30.2544,0 78.47933333333334,30.257199999999997,0 78.47666666666667,30.257199999999997,0 78.47666666666667,30.259999999999998,0 78.474,30.259999999999998,0 78.474,30.2628,0 78.47133333333333,30.2628,0 78.47133333333333,30.2656,0 78.47133333333333,30.2684,0 78.46866666666666,30.2684,0 78.46866666666666,30.2712,0 78.46600000000001,30.2712,0 78.46600000000001,30.273999999999997,0 78.46600000000001,30.274,0 78.46600000000001,30.276799999999998,0 78.46333333333334,30.276799999999998,0 78.46333333333334,30.2796,0 78.46066666666667,30.2796,0 78.46066666666667,30.2824,0 78.46066666666667,30.2852,0 78.458,30.2852,0 78.458,30.288,0 78.458,30.290799999999997,0 78.45533333333334,30.290799999999997,0 78.45533333333334,30.293599999999998,0 78.45533333333334,30.2964,0 78.45533333333334,30.2992,0 78.45266666666667,30.2992,0 </coordinates>
          </LinearRing>
        </outerBoundaryIs>
      </Polygon>
    </Placemark>
  </Document>
</kml>